"area1","area2","type","NAME","addr_jibun","addr_road","telephone","latitude","longitude"
"서울특별시","강남구","관광지","판소리(수궁가)","서울특별시 강남구 논현동 13-14","서울특별시 강남구 도산대로8길 17-7(논현동, 대현빌라)","1600-0064","37.5161226","127.022911"
"서울특별시","강남구","관광지","인천해관문서","서울특별시 강남구 논현동 71","서울특별시 강남구 언주로 721(논현동)","02-510-1114","37.5183005","127.033778"
"서울특별시","강남구","관광지","운봉수향낭","서울특별시 강남구 논현동 89-4","서울특별시 강남구 논현로132길 34(논현동)","02-515-5118","37.5153976","127.033323"
"서울특별시","강남구","관광지","봉화산 도당굿","서울특별시 강남구 대치동 916-80","서울특별시 강남구 삼성로69길 29-1(대치동)","1600-0064","37.5010032","127.057070"
"서울특별시","강남구","관광지","입사장","서울특별시 강남구 삼성동","서울특별시 강남구 봉은사로114길 43(삼성동)","1600-0064","37.5130313","127.066655"
"서울특별시","강남구","관광지","남사당놀이","서울특별시 강남구 삼성동 112-2","서울특별시 강남구 봉은사로 406(삼성동)","02-566-6300","37.5100930","127.044624"
"서울특별시","강남구","관광지","봉은사영산회상도","서울특별시 강남구 삼성동 73","서울특별시 강남구 봉은사로 531(삼성동)","02-3218-4812","37.5158257","127.057734"
"서울특별시","강남구","관광지","전주이씨 광평대군파 묘역","서울특별시 강남구 수서동 산10-1","서울특별시 강남구 광평로31길 20(수서동)","02-459-4733","37.4865192","127.092136"
"서울특별시","강남구","관광지","삼해주약주","서울특별시 강남구 압구정동 369-1","서울특별시 강남구 압구정로29길 71(압구정동, 현대아파트)","1600-0064","37.5336032","127.028325"
"서울특별시","강남구","관광지","선종유심결등합철","서울특별시 강남구 압구정동 481","서울특별시 강남구 압구정로 309(압구정동, 현대아파트)","1600-0064","37.5319211","127.035538"
"서울특별시","강남구","관광지","우암송시열 초구 일령","서울특별시 강남구 압구정동 489","서울특별시 강남구 압구정로 321(압구정동, 한양아파트)","1600-0064","37.5295119","127.038376"
"서울특별시","강남구","관광지","강령탈춤","서울특별시 강남구 역삼동 683-2","서울특별시 강남구 선릉로107길 3-4(역삼동)","02-566-6300","37.5088926","127.043844"
"서울특별시","강남구","관광지","삼강행실도","서울특별시 강남구 역삼동 736-1","서울특별시 강남구 테헤란로 142(역삼동)","1600-0064","37.4997440","127.034954"
"서울특별시","강남구","관광지","승무","서울특별시 강남구 자곡동","서울특별시 강남구 밤고개로 215(자곡동)","1600-0064","37.4749982","127.106869"
"서울특별시","강남구","관광지","완남부원군 이후원 묘역","서울특별시 강남구 자곡동 산39-3","","02-445-2115","37.4753485","127.095802"
"서울특별시","강동구","관광지","문희공유창묘역","서울특별시 강동구 상일동 190","서울특별시 강동구 상암로79가길 49","02-427-4027","37.5469448","127.169806"
"서울특별시","강동구","관광지","광주이씨광릉부원군파묘역","서울특별시 강동구 암사동 산12-1 외","서울특별시 강동구 암사동 산12-1 외","02-3426-1096","37.5634408","127.145291"
"서울특별시","강동구","관광지","서울암사동유적","서울특별시 강동구 암사동139-2일원","서울특별시 강동구 올림픽로 875","02-3425-6520","37.5598523","127.130833"
"서울특별시","강서구","관광지","양천고성지","서울특별시 강서구 가양동 산4-7외 5필지","서울특별시 강서구 양천로47나길 52-54","02-2600-6456","37.5742530","126.841331"
"서울특별시","관악구","관광지","미당서정주의 집","서울특별시 관악구 남현동 1071-11","서울특별시 관악구 남부순환로 256 나길 4","02-879-5607","37.4734465","126.973399"
"서울특별시","관악구","관광지","효민공 이경직 묘역","서울특별시 관악구 남현동 산 57-48","","02-879-5618","37.4700605","126.974513"
"서울특별시","관악구","관광지","낙성대 삼층석탑","서울특별시 관악구 봉천동 228","서울특별시 관악구 낙성대로 77 (봉천동)","02-879-5618","37.4719720","126.959371"
"서울특별시","관악구","관광지","강감찬전시관","서울특별시 관악구 봉천동 228","서울특별시 관악구 낙성대로 77 낙성대공원내","02-879-5619","37.4719720","126.959371"
"서울특별시","관악구","관광지","정정공 강사상 묘역","서울특별시 관악구 신림동 산 107-2","","02-523-4050","37.4662592","126.917932"
"서울특별시","관악구","관광지","봉천동 마애미륵불 좌상","서울특별시 관악구 인헌동 산 4-9","","02-879-5618","",""
"서울특별시","금천구","관광지","순흥안씨양도공파묘군","서울특별시 금천구 시흥동 산126-1","서울특별시 금천구 독산로36나길 63","02-2627-1453","37.4582196","126.909157"
"서울특별시","금천구","관광지","서울호암산성","서울특별시 금천구 시흥동 산93-2","서울특별시 금천구 호암로 192","02-2627-1453","37.4461395","126.922118"
"서울특별시","노원구","관광지","초안산캠핑장","서울특별시 노원구 월계동 750","","02-2289-6865","37.6427608","127.049854"
"서울특별시","도봉구","관광지","호안공 이등과 의령옹주 묘역","서울특별시 도봉구 도봉동 산 85번지","서울특별시 도봉구 도봉동 산85","02-2091-2265","37.6787932","127.022492"
"서울특별시","도봉구","관광지","전주 이씨 영해군파 묘역","서울특별시 도봉구 도봉로169라길 111-6 (도봉동)","서울특별시 도봉구 도봉로169라길 111-6","02-2091-2265","37.6788872","127.029637"
"서울특별시","도봉구","관광지","도봉사 치성광여래삼존도","서울특별시 도봉구 도봉산길 89","서울특별시 도봉구 도봉산길 89","02-2091-2265","37.6852238","127.030311"
"서울특별시","도봉구","관광지","만월암석불좌상","서울특별시 도봉구 도봉산길 89","서울특별시 도봉구 도봉산길 92-4","02-2091-2265","37.6995447","127.018817"
"서울특별시","도봉구","관광지","도봉서원과 각석군","서울특별시 도봉구 도봉산길 90","서울특별시 도봉구 도봉산길 90","02-2091-2265","37.6882941","127.029152"
"서울특별시","도봉구","관광지","천축사 목조불단","서울특별시 도봉구 도봉산길 92-2","서울특별시 도봉구 도봉산길 92-2","02-2091-2265","37.6942136","127.019365"
"서울특별시","도봉구","관광지","천축사 목조석가삼존불","서울특별시 도봉구 도봉산길 92-2 (도봉동)","서울특별시 도봉구 도봉산길 92-2","02-2091-2265","37.6942136","127.019365"
"서울특별시","도봉구","관광지","석굴암 천룡도","서울특별시 도봉구 도봉산길 92-4","서울특별시 도봉구 도봉산길 92-4","02-2091-2265","37.6995447","127.018817"
"서울특별시","도봉구","관광지","한일섭제 박종선류 아쟁산조","서울특별시 도봉구 방학동","서울특별시 도봉구 방학동","02-2091-2265","37.6658975","127.026875"
"서울특별시","도봉구","관광지","방학동 은행나무","서울특별시 도봉구 방학동 546-1","서울특별시 도봉구 방학로17길 6","02-2091-2265","37.6612804","127.023100"
"서울특별시","도봉구","관광지","서울 연산군묘","서울특별시 도봉구 방학동 산77번지","서울특별시 도봉구 방학로17길 46","02-2091-2265","37.6613923","127.021785"
"서울특별시","도봉구","관광지","충정공 목서흠 묘역","서울특별시 도봉구 방학로 252-18 (방학동)","서울특별시 도봉구 방학로 252-18","02-2091-2265","37.6621451","127.024635"
"서울특별시","도봉구","관광지","양효공 안맹담과 정의공주 묘역","서울특별시 도봉구 방학로 264 (방학동)","서울특별시 도봉구 방학로 264","02-2091-2265","37.6621945","127.023127"
"서울특별시","도봉구","관광지","서울 방학동 전형필 가옥","서울특별시 도봉구 시루봉로 149-18","서울특별시 도봉구 시루봉로 149-18","02-2091-2265","37.6648929","127.028186"
"서울특별시","도봉구","관광지","율창 유의호 송서","서울특별시 도봉구 창동","서울특별시 도봉구 창동","02-2091-2265","37.6522582","127.045432"
"서울특별시","도봉구","관광지","서울 초안산분묘군","서울특별시 도봉구 창동 산 202-1","서울특별시 도봉구 창동 산202-1 외","02-2091-2265","37.6379422","127.044684"
"서울특별시","마포구","관광지","노을공원 가족캠핑장","서울특별시 마포구 상암동 481-6","서울특별시 마포구 하늘공원로 108-1","02-304-3213","37.5693180","126.878511"
"서울특별시","마포구","관광지","한강공원 난지캠핑장","서울특별시 마포구 상암동 495-81","서울특별시 마포구 한강난지로 28","02-304-0061","37.5701840","126.872592"
"서울특별시","서초구","관광지","헌인릉","서울특별시 서초구 내곡동 산 13-1","서울특별시 서초구 헌인릉길 36-10","02-440-0347","37.4653774","127.083715"
"서울특별시","서초구","관광지","세빛섬, 반포대교 달빛무지개분수","서울특별시 서초구 반포동 650","서울특별시 서초구 올림픽대로 683","1566-3433","",""
"서울특별시","서초구","관광지","삼성딜라이트","서울특별시 서초구 서초동 1320-10","서울특별시 서초구 서초대로74길 11","02-2255-2277","37.4966333","127.026914"
"서울특별시","서초구","관광지","국립국악원","서울특별시 서초구 서초동 700","서울특별시 서초구 남부순환로 2364","02-580-3300","37.4777188","127.009818"
"서울특별시","서초구","관광지","예술의전당","서울특별시 서초구 서초동 700","서울특별시 서초구 남부순환로 2406","02-580-1300","37.4802402","127.014215"
"서울특별시","서초구","관광지","매헌 윤봉길의사 기념관","서울특별시 서초구 양재동 236","서울특별시 서초구 매헌로 99","02-577-9932","37.4730498","127.036977"
"서울특별시","서초구","관광지","고투몰","서울특별시 서초구 잠원동 68-17","서울특별시 서초구 신반포로 200","02-535-8182","37.5062203","127.005051"
"서울특별시","성동구","관광지","성동 서울숲 여름캠핑장","서울특별시 성동구 성수동1가 685-20","서울특별시 성동구 뚝섬로 273","02-2286-5657","37.5430701","127.041799"
"서울특별시","성동구","관광지","안정사터 마애불 명문 약사불","서울특별시 성동구 하왕십리동 998","","02-2286-5203","37.5606055","127.026874"
"서울특별시","성동구","관광지","아기씨당","서울특별시 성동구 행당동 128-901","","02-2286-5203","37.5577778","127.037579"
"서울특별시","성북구","관광지","심우장","서울특별시 성북구 성북동 222-1","서울특별시 성북구 성북로29길 24","02-741-4693","37.5936269","126.991664"
"서울특별시","성북구","관광지","길상사","서울특별시 성북구 성북동 324-1","서울특별시 성북구 선잠로5길 68(성북동)","02-3672-5945","37.5991094","126.994652"
"서울특별시","성북구","관광지","한국가구박물관","서울특별시 성북구 성북동 330-577","서울특별시 성북구 대사관로121","02-745-0181","37.6003783","126.993449"
"서울특별시","은평구","관광지","인조별서유기비","서울특별시 은평구 역촌동 8-12","","02-351-6522","37.6087458","126.916627"
"서울특별시","은평구","관광지","은평역사한옥박물관","서울특별시 은평구 진관동 135-5","서울특별시 은평구 연서로50길 8","02-351-8525","37.6403336","126.938008"
"서울특별시","은평구","관광지","금성당","서울특별시 은평구 진관동 175-836","서울특별시 은평구 진관2로 57-23","02-388-6522","37.6351344","126.925378"
"서울특별시","은평구","관광지","북한산 캠핑장","서울특별시 은평구 진관동 330-14번지","서울특별시 은평구 북한산로 232-1, 북한산글램핑장 (진관동)","02-351-6535","37.6501582","126.937826"
"서울특별시","은평구","관광지","금암기적비","서울특별시 은평구 진관동 45-4","","02-351-6522","37.6442108","126.918180"
"서울특별시","중랑구","관광지","중랑캠핑숲","서울특별시 중랑구 망우동 76","서울특별시 망우로87길 110","02-434-4371","37.6049551","127.109960"
"서울특별시","중랑구","관광지","망우리공원","서울특별시 중랑구 망우동 산 57-1","서울특별시 망우로 570","02-2094-1812","",""
"서울특별시","중랑구","관광지","용마폭포공원","서울특별시 중랑구 면목동 산 1-4","서울특별시 중랑구 용마산로 250-12","02-2094-2965","37.5733520","127.089122"
"서울특별시","중랑구","관광지","옹기테마공원","서울특별시 중랑구 신내동 777","서울특별시 신내로21길 116","02-2094-1813","37.6126537","127.088519"
"서울특별시","강남구","관광지","원숭이학교","서울특별시 강남구 삼성동 156 부방빌딩","서울특별시 강남구 삼성1동","","37.5143912","127.062527"
"서울특별시","강남구","관광지","선정릉(세계문화유산)","서울특별시 강남구 삼성동 188 삼성동센트럴아이파크","서울특별시 강남구 삼성2동","","37.5112632","127.046070"
"서울특별시","강남구","관광지","광평대군묘역일원","서울특별시 강남구 수서동 756 대한예수교장로회 수서교회","서울특별시 강남구 수서동","","37.4888878","127.105004"
"서울특별시","강남구","관광지","광평대군묘","서울특별시 강남구 일원동 735-4 서울일원본동우체국","서울특별시 강남구 일원본동","","37.483313","127.086498"
"서울특별시","강동구","관광지","금강난식물원","서울특별시 강동구 길동 476","서울특별시 강동구 길동","","37.5344859","127.142712"
"서울특별시","강동구","관광지","한라식물원","서울특별시 강동구 둔촌동 437 근호빌딩","서울특별시 강동구 둔촌2동","","37.533348","127.141963"
"서울특별시","강동구","관광지","암사동선사주거지","서울특별시 강동구 암사동 509 선사현대아파트","서울특별시 강동구 암사2동","","37.5517487","127.127241"
"서울특별시","강북구","관광지","창녕위궁재사","서울특별시 강북구 번동 237 번동주공아파트","서울특별시 강북구 번3동","","37.6231790","127.042745"
"서울특별시","강북구","관광지","국립4.19민주묘지","서울특별시 강북구 우이동 346 파라스파라 서울","서울특별시 강북구 우이동","","37.6630390","127.001890"
"서울특별시","강북구","관광지","대동문","서울특별시 강북구 수유동 521-57 현인요양병원","서울특별시 강북구 인수동","","37.6414330","127.010632"
"서울특별시","강서구","관광지","소악루","서울특별시 강서구 마곡동 770 LG사이언스파크","서울특별시 강서구 가양1동","","37.5694972","126.844728"
"서울특별시","강서구","관광지","허준기념관","서울특별시 강서구 가양동 1478 가양4단지아파트","서울특별시 강서구 가양2동","","37.5673721","126.851257"
"서울특별시","강서구","관광지","약사사","서울특별시 강서구 개화동 332-1 약사사","서울특별시 강서구 금낭화로17길 261","02-2664-2550","37.5831256","126.805007"
"서울특별시","강서구","관광지","양천향교","서울특별시 강서구 가양동 234 양천향교","서울특별시 강서구 양천로47나길 53","02-2659-0076","37.5728947","126.839974"
"서울특별시","강서구","관광지","궁산땅굴역사전시관","서울특별시 강서구 마곡동 산3 공중화장실","서울특별시 강서구 양천로49길 106","02-2600-6552","37.5726675","126.838365"
"서울특별시","강서구","관광지","허가바위","서울특별시 강서구 가양동 1468 영등포공업고등학교","서울특별시 강서구 허준로5길 15","02-2600-6080","37.5698356","126.850028"
"서울특별시","강서구","관광지","허준근린공원","서울특별시 강서구 가양동 1471 허준공원관리사무실","서울특별시 강서구 허준로5길 42","02-2600-4185","37.5675982","126.853729"
"서울특별시","관악구","관광지","낙성대","서울특별시 관악구 봉천동 272 서울영어마을 관악캠프","서울특별시 관악구 낙성대동","","37.4762914","126.958405"
"서울특별시","관악구","관광지","관악산야외식물원","서울특별시 관악구 신림동 233-1 서울삼성초등학교","서울특별시 관악구 대학동","","37.4706092","126.936970"
"서울특별시","광진구","관광지","동물원","서울특별시 광진구 능동 18 어린이대공원","서울특별시 광진구 능동","","37.5537792","127.080536"
"서울특별시","구로구","관광지","함양여씨묘역","서울특별시 구로구 고척동 256-7 고척2동새마을금고","서울특별시 구로구 고척2동","","37.5067114","126.858611"
"서울특별시","구로구","관광지","푸른수목원","서울특별시 구로구 천왕동 280 천왕연지타운1단지","서울특별시 구로구 오류2동","","37.4888579","126.839504"
"서울특별시","노원구","관광지","태강릉강릉(세계문화유산)","서울특별시 노원구 공릉동 747 두산힐스빌아파트","서울특별시 노원구 공릉2동","","37.6213085","127.083296"
"서울특별시","노원구","관광지","초안산조선시대분묘군","서울특별시 노원구 월계동 561 서울월계초등학교","서울특별시 노원구 월계2동","","37.6324884","127.050744"
"서울특별시","노원구","관광지","충숙공이상길묘역","서울특별시 노원구 하계동 62 B.D.117","서울특별시 노원구 하계1동","","37.6405462","127.072581"
"서울특별시","도봉구","관광지","금란조경꽃식물원","서울특별시 도봉구 방학동 273 방학3동주민센터","서울특별시 도봉구 방학3동","","37.6591579","127.028033"
"서울특별시","동대문구","관광지","홍릉","서울특별시 동대문구 청량리동 260","서울특별시 동대문구 청량리동","","37.5862511","127.047289"
"서울특별시","동작구","관광지","창빈안씨묘역","서울특별시 동작구 사당동 127 127하우스","서울특별시 동작구 사당2동","","37.4887525","126.979253"
"서울특별시","동작구","관광지","효간공이정영묘역","서울특별시 동작구 사당동 278-34 사당4동경노당","서울특별시 동작구 사당4동","","37.4809589","126.971630"
"서울특별시","마포구","관광지","천년의문","서울특별시 마포구 상암동 1732 서부도로교통사업소","서울특별시 마포구 상암동","","37.5783209","126.894689"
"서울특별시","서대문구","관광지","정우오년명반자","서울특별시 서대문구 신촌동 1-19","서울특별시 서대문구 신촌동","","37.5651616","126.939276"
"서울특별시","서대문구","관광지","독립문","서울특별시 서대문구 천연동 13-1 서울금화초등학교","서울특별시 서대문구 천연동","","37.5675017","126.958422"
"서울특별시","서초구","관광지","민들레식물원","서울특별시 서초구 내곡동 376 서울영동농협종합시설","서울특별시 서초구 내곡동","","37.4582463","127.076916"
"서울특별시","서초구","관광지","청권사","서울특별시 서초구 방배동 3279 방배 서리풀 그랑블","서울특별시 서초구 방배1동","","37.4833697","126.994491"
"서울특별시","서초구","관광지","미림식물원","서울특별시 서초구 양재동 80 상록빌딩","서울특별시 서초구 양재1동","","37.4716393","127.026728"
"서울특별시","서초구","관광지","청아식물원","서울특별시 서초구 양재동 362 삼성베스트빌","서울특별시 서초구 양재2동","","37.4706332","127.041288"
"서울특별시","성동구","관광지","곤충식물원","서울특별시 성동구 성수동1가 247-1 성수1가1동새마을금고","서울특별시 성동구 성수1가1동","","37.5420797","127.049651"
"서울특별시","성북구","관광지","의릉","서울특별시 성북구 석관동 410 래미안아트리치","서울특별시 성북구 석관동","","37.6129860","127.061400"
"서울특별시","성북구","관광지","정릉","서울특별시 성북구 정릉동 414-6 정릉2동새마을금고","서울특별시 성북구 정릉2동","","37.6044925","127.011139"
"서울특별시","송파구","관광지","백제고분군","서울특별시 송파구 방이동 129","서울특별시 송파구 방이1동","","37.5109802","127.123919"
"서울특별시","송파구","관광지","일광식물원","서울특별시 송파구 오금동 103-2 서울조경","서울특별시 송파구 오금동","","37.5029748","127.128103"
"서울특별시","송파구","관광지","제일수목원","서울특별시 송파구 방이동 89-16 서울오륜초등학교","서울특별시 송파구 오륜동","","37.5154162","127.134305"
"서울특별시","송파구","관광지","삼전도비","서울특별시 송파구 잠실동 27-12 서울잠실3동우체국","서울특별시 송파구 잠실3동","","37.5133248","127.094383"
"서울특별시","용산구","관광지","광개토대왕릉비","서울특별시 용산구 남영동 128 서울빌딩","서울특별시 용산구 남영동","","37.5430061","126.973322"
"서울특별시","용산구","관광지","고달사지쌍사자석등","서울특별시 용산구 서빙고동 37","서울특별시 용산구 서빙고동","","37.5204623","126.994638"
"서울특별시","용산구","관광지","백범김구동상","서울특별시 용산구 효창동 286 용산케이씨씨스위첸","서울특별시 용산구 효창동","","37.5424588","126.961898"
"서울특별시","용산구","관광지","남산야외식물원","서울특별시 용산구 후암동 258-8","서울특별시 용산구 후암동","","37.5486798","126.978150"
"서울특별시","동대문구","관광지","산림청과학원홍릉수목원","서울특별시 동대문구 청량리동 260","서울특별시 동대문구 청량리동","","37.5862511","127.047289"
"서울특별시","종로구","관광지","홍화문","서울특별시 종로구 사직동 262-48","서울특별시 종로구 사직동","","37.5761869","126.968846"
"서울특별시","종로구","관광지","이화장","서울특별시 종로구 이화동 9-851","서울특별시 종로구 이화동","","37.5769946","127.004338"
"서울특별시","종로구","관광지","창경궁홍화문","서울특별시 종로구 묘동 28 삼오빌딩","서울특별시 종로구 종로1.2.3.4가동","","37.5744355","126.990287"
"서울특별시","종로구","관광지","지광국사현묘탑","서울특별시 종로구 효자동 50-10 효자동다세대주택","서울특별시 종로구 청운효자동","","37.5841161","126.970649"
"서울특별시","중구","관광지","천상열차분야지도각석","서울특별시 중구 소공동 26","서울특별시 중구 소공동","","37.5638997","126.979794"
"서울특별시","중구","관광지","유관순동상","서울특별시 중구 장충동2가 190-5","서울특별시 중구 장충동","","37.5619118","127.007859"
"서울특별시","중구","관광지","남산골한옥마을","서울특별시 중구 필동1가 3-4","서울특별시 중구 필동","","37.5601640","126.995599"
"서울특별시","중구","관광지","김유신장군동상","서울특별시 중구 회현동1가 150-1","서울특별시 중구 회현동","","37.5572935","126.979356"
"서울특별시","중랑구","관광지","아차산봉수대지","서울특별시 중랑구 묵동 174-3 묵1동 주민센터","서울특별시 중랑구 묵1동","","37.6124136","127.078484"
"서울특별시","강서구","지하철역","김포공항역","서울특별시 강서구 방화동 886 김포공항역","서울특별시 강서구 하늘길77","031-8048-1790","37.5621441","126.801570"
"서울특별시","중구","지하철역","서울역","서울특별시 중구 남대문로5가 73-6 서울역 1호선","서울특별시 중구 세종대로 지하 2 (남대문로 5가)","02-6110-1331","37.5571594","126.972554"
"서울특별시","중구","지하철역","시청","서울특별시 중구 정동 5-5 시청역 1호선","서울특별시 중구 세종대로 지하 101 (정동)","02-6110-1321","37.5654385","126.976983"
"서울특별시","종로구","지하철역","종각","서울특별시 종로구 종로1가 54 종각지하철역사","서울특별시 종로구 종로 지하 55 (종로1가)","02-6110-1311","37.5702140","126.983239"
"서울특별시","종로구","지하철역","종로3가","서울특별시 종로구 종로3가 10-5 1호선 종로3가역","서울특별시 종로구 종로 지하 129 (종로3가)","02-6110-1301","37.5704266","126.992029"
"서울특별시","종로구","지하철역","종로5가","서울특별시 종로구 종로5가 82-1 1호선 종로5가역","서울특별시 종로구 종로 지하 216  (종로5가)","02-6110-1291","37.5709075","127.001916"
"서울특별시","종로구","지하철역","동대문","서울특별시 종로구 창신동 492-1 1호선 동대문역","서울특별시 종로구 종로 지하 302 (창신동)","02-6110-1281","37.5717775","127.011167"
"서울특별시","동대문구","지하철역","신설동","서울특별시 동대문구 신설동 76-5 신설동역","서울특별시 동대문구 왕산로 지하 1 (신설동)","02-6110-1261","37.5753194","127.024701"
"서울특별시","동대문구","지하철역","제기동","서울특별시 동대문구 제기동 65 제기동역","서울특별시 동대문구 왕산로 지하 93 (제기동)","02-6110-1251","37.5781967","127.034690"
"서울특별시","동대문구","지하철역","청량리","서울특별시 동대문구 전농동 620-69 청량리역","서울특별시 동대문구 왕산로 지하 205(전농동)","02-6110-1241","37.5802331","127.045085"
"서울특별시","종로구","지하철역","동묘앞","서울특별시 종로구 숭인동 117 동묘앞역","서울특별시 종로구 종로 359 (숭인동)","02-6110-1271","37.5733722","127.016751"
"서울특별시","강서구","지하철역","까치산","서울특별시 강서구 화곡동 662-5 까치산역","서울특별시 강서구 강서로 지하54(화곡동)","02-6311-5181","37.5319560","126.846611"
"서울특별시","중구","지하철역","시청","서울특별시 중구 정동 5-5 시청역 1호선","서울특별시 중구 세종대로 지하 101 (정동)","02-6110-2011","37.5654385","126.976983"
"서울특별시","중구","지하철역","을지로입구","서울특별시 중구 을지로1가 100-1 을지로입구역 2호선","서울특별시 중구 을지로 지하 42 (을지로1가)","02-6110-2021","37.5660509","126.982372"
"서울특별시","중구","지하철역","을지로3가","서울특별시 중구 을지로3가 347-3 을지로3가역 2호선","서울특별시 중구 을지로 지하 106 (을지로3가)","02-6110-2031","37.5662659","126.990308"
"서울특별시","중구","지하철역","을지로4가","서울특별시 중구 을지로4가 267-1 을지로4가역 2호선","서울특별시 중구 을지로 지하 178 (을지로4가)","02-6110-2041","37.5666369","126.997852"
"서울특별시","중구","지하철역","동대문역사문화공원","서울특별시 중구 을지로7가 112-3 동대문역사문화공원역 2호선","서울특별시 중구 을지로 지하 279 (을지로7가)","02-6110-2051","37.5655895","127.009131"
"서울특별시","중구","지하철역","신당","서울특별시 중구 신당동 99 신당역 2호선","서울특별시 중구 퇴계로 지하 431-1 (신당동)","02-6110-2061","37.5656540","127.019540"
"서울특별시","성동구","지하철역","상왕십리","서울특별시 성동구 하왕십리동 946-14 상왕십리역","서울특별시 성동구 왕십리로 지하 374 (하왕십리동)","02-6110-2071","37.5644687","127.029031"
"서울특별시","성동구","지하철역","왕십리","서울특별시 성동구 행당동 192 왕십리역","서울특별시 성동구 왕십리로 지하300(행당동)","02-6110-2081","37.5612217","127.036655"
"서울특별시","성동구","지하철역","한양대","서울특별시 성동구 행당동 산17 한양대역","서울특별시 성동구 왕십리로 206 (행당동)","02-6110-2091","37.5555778","127.043584"
"서울특별시","성동구","지하철역","뚝섬","서울특별시 성동구 성수동1가 656-745 뚝섬역","서울특별시 성동구 아차산로 18 (성수동1가)","02-6110-2101","37.5471882","127.047365"
"서울특별시","성동구","지하철역","성수","서울특별시 성동구 성수동2가 300-1 성수역","서울특별시 성동구 아차산로 100 (성수동2가)","02-6110-2111","37.5445024","127.056090"
"서울특별시","광진구","지하철역","건대입구","서울특별시 광진구 화양동 7-3 2호선 건대입구역","서울특별시 광진구 아차산로 243 (화양동)","02-6110-2121","37.5404188","127.069173"
"서울특별시","광진구","지하철역","구의","서울특별시 광진구 구의동 245-24 2호선 구의역","서울특별시 광진구 아차산로 384-1 (구의동)","02-6110-2131","37.5371535","127.086179"
"서울특별시","광진구","지하철역","강변","서울특별시 광진구 구의동 546-6 2호선 강변역","서울특별시 광진구 강변역로 53 (구의동)","02-6110-2141","37.5351692","127.094664"
"서울특별시","송파구","지하철역","잠실나루","서울특별시 송파구 신천동 15 잠실나루역","서울특별시 송파구 오금로 20 (신천동)","02-6110-2151","37.5206867","127.103811"
"서울특별시","송파구","지하철역","잠실","서울특별시 송파구 신천동 8 잠실역2호선","서울특별시 송파구 올림픽로 지하 265 (잠실동)","02-6110-2161","37.5138592","127.101857"
"서울특별시","송파구","지하철역","잠실새내","서울특별시 송파구 잠실동 33 잠실새내역","서울특별시 송파구 올림픽로 지하 140 (잠실동)","02-6110-2171","37.5115672","127.086373"
"서울특별시","송파구","지하철역","종합운동장","서울특별시 송파구 잠실동 122 종합운동장역","서울특별시 송파구 올림픽로 지하 23 (잠실동)","02-6110-2181","37.5109692","127.073356"
"서울특별시","강남구","지하철역","삼성","서울특별시 강남구 삼성동 172-66 삼성역","서울특별시 강남구 테헤란로 지하 538 (삼성동)","02-6110-2191","37.508862","127.063073"
"서울특별시","강남구","지하철역","선릉","서울특별시 강남구 삼성동 172-66 선릉역","서울특별시 강남구 테헤란로 지하 340 (삼성동)","02-6110-2201","37.5045028","127.048942"
"서울특별시","강남구","지하철역","역삼","서울특별시 강남구 역삼동 804 역삼역","서울특별시 강남구 테헤란로 지하 156 (역삼동)","02-6110-2211","37.5007162","127.036618"
"서울특별시","강남구","지하철역","강남","서울특별시 강남구 역삼동 858 강남역","서울특별시 강남구 강남대로 지하 396 (역삼동)","02-6110-2221","37.4981646","127.028307"
"서울특별시","서초구","지하철역","교대","서울특별시 서초구 서초동 1748-4 교대역","서울특별시 서초구 서초대로 지하 294 (서초동)","02-6110-2231","37.4935774","127.014155"
"서울특별시","서초구","지하철역","서초","서울특별시 서초구 서초동 1748-5 서초역","서울특별시 서초구 서초대로 지하 233 (서초동)","02-6110-2241","37.491823","127.007580"
"서울특별시","서초구","지하철역","방배","서울특별시 서초구 방배동 912-14 방배역","서울특별시 서초구 방배로 지하 80 (방배동)","02-6110-2251","37.4814364","126.997694"
"서울특별시","동작구","지하철역","사당","서울특별시 동작구 사당동 1129 사당역(2호선)","서울특별시 동작구 남부순환로 지하 2089 (사당동)","02-6110-2261","37.4765228","126.981408"
"서울특별시","관악구","지하철역","낙성대","서울특별시 관악구 봉천동 1693-39","서울특별시 관악구 남부순환로 지하 1928 (봉천동)","02-6110-2271","37.4770651","126.96341"
"서울특별시","관악구","지하철역","서울대입구","서울특별시 관악구 봉천동 979-2","서울특별시 관악구 남부순환로 지하 1822 (봉천동)","02-6110-2281","37.4811526","126.952645"
"서울특별시","관악구","지하철역","봉천","서울특별시 관악구 봉천동 979-7","서울특별시 관악구 남부순환로 지하 1721 (봉천동)","02-6110-2291","37.4825562","126.941495"
"서울특별시","관악구","지하철역","신림","서울특별시 관악구 신림동 1467-10","서울특별시 관악구 남부순환로 지하 1614 (신림동)","02-6110-2301","37.4842176","126.929803"
"서울특별시","동작구","지하철역","신대방","서울특별시 동작구 신대방동 643-1 신대방역2호선","서울특별시 동작구 대림로 2 (신대방동)","02-6110-2311","37.4875759","126.913175"
"서울특별시","구로구","지하철역","구로디지털단지","서울특별시 구로구 구로동 810-3 구로디지털단지역","서울특별시 구로구 도림천로 477 (구로동)","02-6110-2321","37.4853149","126.901494"
"서울특별시","구로구","지하철역","신도림","서울특별시 구로구 신도림동 460-26 2호선 신도림역","서울특별시 구로구 새말로 지하 117-21 (신도림동)","02-6110-2341","37.5087701","126.891080"
"서울특별시","영등포구","지하철역","문래","서울특별시 영등포구 문래동3가 68-1 문래역","서울특별시 영등포구 당산로 지하 28 (문래동3가)","02-6110-2351","37.5179214","126.894763"
"서울특별시","영등포구","지하철역","영등포구청","서울특별시 영등포구 당산동3가 270-1 영등포구청역","서울특별시 영등포구 당산로 지하 121 (당산동3가)","02-6110-2361","37.5256996","126.896626"
"서울특별시","영등포구","지하철역","당산","서울특별시 영등포구 당산동6가 323-1 당산역","서울특별시 영등포구 당산로 229 (당산동 6가)","02-6110-2371","37.5349568","126.902730"
"서울특별시","마포구","지하철역","합정","서울특별시 마포구 서교동 393 합정역","서울특별시 마포구 양화로 지하 55 (서교동)","02-6110-2381","37.5501152","126.914638"
"서울특별시","마포구","지하철역","홍대입구","서울특별시 마포구 동교동 165 홍대입구역","서울특별시 마포구 양화로 지하160 (동교동)","02-6110-2391","37.5568904","126.923674"
"서울특별시","마포구","지하철역","신촌","서울특별시 마포구 노고산동 31-11 신촌역","서울특별시 마포구 신촌로 지하 90 (노고산동)","02-6110-2401","37.5554417","126.936119"
"서울특별시","마포구","지하철역","이대","서울특별시 마포구 염리동 8-85 이대역","서울특별시 마포구 신촌로 지하 180 (염리동)","02-6110-2411","37.5567980","126.945758"
"서울특별시","마포구","지하철역","아현","서울특별시 마포구 아현동 354-23 아현역","서울특별시 마포구 신촌로 지하 270 (아현동)","02-6110-2421","37.5573575","126.956033"
"서울특별시","서대문구","지하철역","충정로","서울특별시 서대문구 충정로3가 319-1 충정로역(2호선)","서울특별시 서대문구 서소문로 지하 17 (충정로3가)","02-6110-2431","37.5598378","126.964474"
"서울특별시","성동구","지하철역","용답","서울특별시 성동구 용답동 127 용답역","서울특별시 성동구 용답길 86 (용답동)","02-6110-1341","37.5620049","127.050729"
"서울특별시","성동구","지하철역","신답","서울특별시 성동구 용답동 129-2 신답역","서울특별시 성동구 천호대로 232 (용답동)","02-6110-1351","37.5699910","127.046820"
"서울특별시","동대문구","지하철역","신설동","서울특별시 동대문구 신설동 76-5 신설동역","서울특별시 동대문구 왕산로 지하 1 (신설동)","02-6110-1371","37.5753194","127.024701"
"서울특별시","구로구","지하철역","도림천","서울특별시 구로구 신도림동 323-16 도림천역","서울특별시 구로구 경인로 67길 160 (신도림동)","02-6110-2441","37.5144420","126.882702"
"서울특별시","양천구","지하철역","양천구청","서울특별시 양천구 신정동 276-7 양천구청역","서울특별시 양천구 목동로3길 지하 33(신정동)","02-6110-2451","37.5126989","126.866065"
"서울특별시","양천구","지하철역","신정네거리","서울특별시 양천구 신정동 1231 신정네거리역","서울특별시 양천구 중앙로 지하 261 (신정동)","02-6110-2461","37.5197975","126.852991"
"서울특별시","동대문구","지하철역","용두","서울특별시 동대문구 용두동 47-1 용두역","서울특별시 동대문구 천호대로 지하 129","02-6110-1361","37.5739380","127.038031"
"서울특별시","은평구","지하철역","구파발","서울특별시 은평구 진관동 67-26 3호선 구파발역사무소","서울특별시 은평구 진관2로 지하 15-25 (진관동)","02-6110-3201","37.6368417","126.918745"
"서울특별시","은평구","지하철역","연신내","서울특별시 은평구 갈현동 397 3,6호선 연신내역사무소","서울특별시 은평구 통일로 지하 849 (갈현동)","02-6110-3211","37.618962","126.921162"
"서울특별시","은평구","지하철역","불광","서울특별시 은평구 대조동 13-10 3,6호선 불광역사무소","서울특별시 은평구 통일로 지하 723-1 (대조동, 3호선 불광역)","02-6110-3221","37.6102072","126.929985"
"서울특별시","은평구","지하철역","녹번","서울특별시 은평구 녹번동 55 지하철3호선 녹번역","서울특별시 은평구 통일로 지하 602-1 (녹번동)","02-6110-3231","37.6007421","126.936019"
"서울특별시","서대문구","지하철역","홍제","서울특별시 서대문구 홍제동 161-1 홍제역","서울특별시 서대문구 통일로 지하 440-1 (홍제동)","02-6110-3241","37.5887103","126.944242"
"서울특별시","서대문구","지하철역","무악재","서울특별시 서대문구 홍제동 26-1 무악재역","서울특별시 서대문구 통일로 지하 361 (홍제동)","02-6110-3251","37.5823841","126.950322"
"서울특별시","서대문구","지하철역","독립문","서울특별시 서대문구 현저동 101 독립문역","서울특별시 서대문구 통일로 지하 247 (현저동)","02-6110-3261","37.5744103","126.957750"
"서울특별시","종로구","지하철역","경복궁","서울특별시 종로구 적선동 81-1 3호선 경복궁역","서울특별시 종로구 사직로 지하 130 (적선동)","02-6110-3271","37.5758613","126.973062"
"서울특별시","종로구","지하철역","안국","서울특별시 종로구 안국동 73-1 3호선 안국역","서울특별시 종로구 율곡로 지하 62 (안국동)","02-6110-3281","37.5767203","126.985823"
"서울특별시","종로구","지하철역","종로3가","서울특별시 종로구 종로3가 10-5 1호선 종로3가역","서울특별시 종로구 종로 지하 129 (종로3가)","02-6110-3291","37.5704266","126.992029"
"서울특별시","중구","지하철역","을지로3가","서울특별시 중구 을지로3가 347-3 을지로3가역 2호선","서울특별시 중구 을지로 지하 106 (을지로3가)","02-6110-3301","37.5662659","126.990308"
"서울특별시","중구","지하철역","충무로","","서울특별시 중구 퇴계로 지하 199 (필동2가)","02-6110-4231","",""
"서울특별시","중구","지하철역","동대입구","서울특별시 중구 장충동2가 199-3 동대입구역 3호선","서울특별시 중구 동호로 지하 256 (장충동2가)","02-6110-3321","37.5590302","127.005460"
"서울특별시","중구","지하철역","약수","서울특별시 중구 신당동 369-44 약수역 3호선","서울특별시 중구 다산로 지하 122 (신당동)","02-6110-3331","37.5545595","127.010822"
"서울특별시","성동구","지하철역","금호","서울특별시 성동구 금호동4가 1470 금호역","서울특별시 성동구 동호로 지하 104 (금호동4가)","02-6110-3341","37.5481125","127.015893"
"서울특별시","성동구","지하철역","옥수","서울특별시 성동구 옥수동 168-1 옥수역","서울특별시 성동구 동호로 21 (옥수동) 옥수역","02-6110-3351","37.5410468","127.01833"
"서울특별시","강남구","지하철역","압구정","서울특별시 강남구 신사동 668 압구정역","서울특별시 강남구 압구정로 지하 172 (신사동)","02-6110-3361","37.5264308","127.028480"
"서울특별시","강남구","지하철역","신사","서울특별시 강남구 신사동 667 신사역","서울특별시 강남구 도산대로 지하 102 (신사동)","02-6110-3371","37.5164324","127.020326"
"서울특별시","서초구","지하철역","잠원","서울특별시 서초구 잠원동 100-1 잠원역","서울특별시 서초구 잠원로 4길 지하 46 (잠원동)","02-6110-3381","37.5127991","127.011220"
"서울특별시","서초구","지하철역","고속터미널","서울특별시 서초구 반포동 19-11 강남고속터미널역","서울특별시 서초구 신반포로 지하 188 (반포동)","02-6110-3391","37.5046471","127.004442"
"서울특별시","서초구","지하철역","교대","서울특별시 서초구 서초동 1748-4 교대역","서울특별시 서초구 서초대로 지하 294 (서초동)","02-6110-3401","37.4935774","127.014155"
"서울특별시","서초구","지하철역","남부터미널","서울특별시 서초구 서초동 1748-30 남부터미널역","서울특별시 서초구 서초중앙로 지하 31 (서초동)","02-6110-3411","37.4851401","127.016207"
"서울특별시","서초구","지하철역","양재","서울특별시 서초구 서초동 1366-9 양재역","서울특별시 서초구 남부순환로 지하 2585 (서초동)","02-6110-3421","37.4839347","127.034544"
"서울특별시","강남구","지하철역","매봉","서울특별시 강남구 도곡동 179-2 매봉역","서울특별시 강남구 남부순환로 지하 2744 (도곡동)","02-6110-3431","37.4869611","127.046614"
"서울특별시","강남구","지하철역","도곡","서울특별시 강남구 도곡동 339-2 도곡역","서울특별시 강남구 남부순환로 지하 2814 (도곡동)","02-6110-3441","37.4908647","127.055323"
"서울특별시","강남구","지하철역","대치","서울특별시 강남구 대치동 317-3 대치역","서울특별시 강남구 남부순환로 지하 2952 (대치동)","02-6110-3451","37.4945627","127.063430"
"서울특별시","강남구","지하철역","학여울","서울특별시 강남구 대치동 514-3 학여울역","서울특별시 강남구 남부순환로 지하 3104 (대치동)","02-6110-3461","37.4967171","127.071719"
"서울특별시","강남구","지하철역","대청","서울특별시 강남구 일원동 700-9 대청역","서울특별시 강남구 일원로 지하 2 (일원동)","02-6110-3471","37.4937218","127.079493"
"서울특별시","강남구","지하철역","일원","서울특별시 강남구 일원동 717 일원역","서울특별시 강남구 일원로 지하 121 (일원동)","02-6110-3481","37.4840735","127.084451"
"서울특별시","강남구","지하철역","수서","서울특별시 강남구 수서동 728 수서역","서울특별시 강남구 광평로 지하 270 (수서동)","02-6110-3491","37.4873889","127.101859"
"서울특별시","송파구","지하철역","가락시장","서울특별시 송파구 가락동 184-23 가락시장역","서울특별시 송파구 송파대로 지하 257 (가락동)","02-6311-8171","37.4927440","127.118485"
"서울특별시","송파구","지하철역","경찰병원","서울특별시 송파구 가락동 10-15 경찰병원역","서울특별시 송파구 중대로 지하 149 (가락동)","02-6110-3511","37.4956031","127.124067"
"서울특별시","송파구","지하철역","오금","서울특별시 송파구 오금동 44-2 오금역","서울특별시 송파구 오금로 지하 321 (오금동)","02-6110-3521","37.5022659","127.127879"
"서울특별시","노원구","지하철역","당고개","서울특별시 노원구 상계동 111 당고개역","서울특별시 노원구 상계로 305 (상계동)","02-6110-4091","37.6702926","127.079011"
"서울특별시","노원구","지하철역","상계","서울특별시 노원구 상계동 156-203 상계역","서울특별시 노원구 상계로 182 (상계동)","02-6110-4101","37.6609038","127.073575"
"서울특별시","노원구","지하철역","노원","서울특별시 노원구 상계동 602-5 노원역 4호선","서울특별시 노원구 상계로 69-1 (상계동)","02-6110-4111","37.6562677","127.063030"
"서울특별시","도봉구","지하철역","창동","서울특별시 도봉구 창동 135-1 창동역","서울특별시 도봉구 마들로 11길 77 (창동)","02-6110-4121","37.6532174","127.047715"
"서울특별시","도봉구","지하철역","쌍문","서울특별시 도봉구 창동 703-4 쌍문역","서울특별시 도봉구 도봉로 지하 486-1 (창동)","02-6110-4131","37.6488498","127.034880"
"서울특별시","강북구","지하철역","수유","서울특별시 강북구 미아동 66-1 미아사거리역","서울특별시 강북구 도봉로 지하 50 (미아동)","02-6110-4141","37.6132861","127.030098"
"서울특별시","강북구","지하철역","미아","서울특별시 강북구 미아동 194-1 미아역","서울특별시 강북구 도봉로 지하 198 (미아동)","02-6110-4151","37.6264436","127.026103"
"서울특별시","강북구","지하철역","미아사거리","서울특별시 강북구 미아동 66-1 미아사거리역","서울특별시 강북구 도봉로 지하 50 (미아동)","02-6110-4161","37.6132861","127.030098"
"서울특별시","성북구","지하철역","길음","서울특별시 성북구 길음동 877-66 길음역","서울특별시 성북구 동소문로 지하 248 (길음동)","02-6110-4171","37.6031839","127.024823"
"서울특별시","성북구","지하철역","성신여대입구","서울특별시 성북구 동선동4가 1 성신여대입구역","서울특별시 성북구 동소문로 지하 102 (동선동4가)","02-6110-4181","37.5927179","127.016477"
"서울특별시","성북구","지하철역","한성대입구","서울특별시 성북구 삼선동1가 14 한성대입구역","서울특별시 성북구 삼선교로 지하1 (삼선동1가)","02-6110-4191","37.5883948","127.005950"
"서울특별시","종로구","지하철역","혜화","서울특별시 종로구 명륜4가 96-5 4호선 혜화역","서울특별시 종로구 대학로 지하 120 (동숭동)","02-6110-4201","37.5818036","127.001978"
"서울특별시","종로구","지하철역","동대문","서울특별시 종로구 종로6가 287-1 4호선 동대문역","서울특별시 종로구 율곡로 308","02-6110-4211","37.5704117","127.009546"
"서울특별시","중구","지하철역","동대문역사문화공원","서울특별시 중구 광희동2가 9 동대문역사문화공원역 4호선","서울특별시 중구 장충단로 지하 230 (광희동 2가)","02-6110-4221","37.5650787","127.007550"
"서울특별시","중구","지하철역","충무로","","서울특별시 중구 퇴계로 지하 199 (필동2가)","02-6110-4231","",""
"서울특별시","중구","지하철역","명동","서울특별시 중구 충무로2가 109-2 명동역 4호선","서울특별시 중구 퇴계로 지하 126 (충무로2가)","02-6110-4241","37.5609100","126.985947"
"서울특별시","중구","지하철역","회현","서울특별시 중구 남창동 64-1 회현역 4호선","서울특별시 중구 퇴계로 지하 54 (남창동)","02-6110-4251","37.5585353","126.978239"
"서울특별시","용산구","지하철역","서울역","서울특별시 용산구 동자동 14-151 4호선 서울역","서울특별시 용산구 한강대로 지하 392(동자동)","02-6110-4261","37.5532000","126.972805"
"서울특별시","용산구","지하철역","숙대입구","서울특별시 용산구 갈월동 16-7 숙대입구역","서울특별시 용산구 한강대로 지하 306","02-6110-4271","37.5451939","126.971872"
"서울특별시","용산구","지하철역","삼각지","서울특별시 용산구 한강로1가 228-1 4호선 삼각지역","서울특별시 용산구 한강대로 지하 180 (한강로1가)","02-6110-4281","37.5345937","126.973011"
"서울특별시","용산구","지하철역","신용산","서울특별시 용산구 한강로2가 181 4호선 신용산역","서울특별시 용산구 한강대로 지하 112 (한강로2가)","02-6110-4291","37.5296155","126.968215"
"서울특별시","용산구","지하철역","이촌","서울특별시 용산구 용산동5가 17-112 4호선 이촌역","서울특별시 용산구 용산동5가 17","02-6110-4301","37.5229134","126.975995"
"서울특별시","동작구","지하철역","동작","서울특별시 동작구 동작동 327-1 4호선 동작역 Dongjak s.t","서울특별시 동작구 현충로 257 (동작동)","02-6110-4311","37.5028703","126.980268"
"서울특별시","동작구","지하철역","총신대입구","서울특별시 동작구 사당동 736-1 총신대입구(이수)역4호선","서울특별시 동작구 동작대로 지하 117 (사당동)","02-6110-4321","37.4875538","126.982199"
"서울특별시","동작구","지하철역","사당","서울특별시 동작구 사당동 588-44 사당역(4호선)","서울특별시 동작구 동작대로 3(사당동,사당역(4호선))","02-6110-4331","37.4768632","126.981595"
"서울특별시","서초구","지하철역","남태령","서울특별시 서초구 방배동 2909 남태령역","서울특별시 서초구 과천대로 지하 816 (방배동)","02-6110-4341","37.4648575","126.988656"
"서울특별시","강서구","지하철역","방화","서울특별시 강서구 방화동 829-15 방화역 5호선","서울특별시 강서구 금낭화로 지하132 (방화동)","02-6311-5101","37.5770031","126.812629"
"서울특별시","강서구","지하철역","개화산","서울특별시 강서구 방화동 846 개화산역","서울특별시 강서구 양천로 22(방화동)","02-6311-5111","37.5722700","126.806001"
"서울특별시","강서구","지하철역","김포공항","서울특별시 강서구 방화동 886 김포공항역","서울특별시 강서구 하늘길 지하77 (방화동)","02-6311-5121","37.5621441","126.801570"
"서울특별시","강서구","지하철역","송정","서울특별시 강서구 공항동 29-5 송정역(5호선)","서울특별시 강서구 공항대로 지하33 (공항동)","02-6311-5131","37.5614775","126.811055"
"서울특별시","강서구","지하철역","마곡","서울특별시 강서구 마곡동 769-3 마곡역(5호선)","서울특별시 강서구 공항대로 지하163 (가양동)","02-6311-5141","37.5601984","126.825548"
"서울특별시","강서구","지하철역","발산","서울특별시 강서구 마곡동 727-1496 발산역(5호선)","서울특별시 강서구 공항대로 지하267 (가양동)","02-6311-5151","37.5590292","126.837310"
"서울특별시","강서구","지하철역","우장산","서울특별시 강서구 화곡동 1089-3 우장산역 5호선","서울특별시 강서구 강서로 지하262 (화곡동)","02-6311-5161","37.5490002","126.836408"
"서울특별시","강서구","지하철역","화곡","서울특별시 강서구 화곡동 1089-54 화곡역 5호선","서울특별시 강서구 화곡로 지하168 (화곡동)","02-6311-5171","37.5414336","126.840496"
"서울특별시","강서구","지하철역","까치산","서울특별시 강서구 화곡동 662-5 까치산역","서울특별시 강서구 강서로 지하54(화곡동)","02-6311-5181","37.5319560","126.846611"
"서울특별시","양천구","지하철역","신정","서울특별시 양천구 신정동 1090 신정역","서울특별시 양천구 오목로 지하179 (신정동)","02-6311-5191","37.5252107","126.857290"
"서울특별시","양천구","지하철역","목동","서울특별시 양천구 목동 926-3 목동역","서울특별시 양천구 오목로 지하245 (목동)","02-6311-5201","37.5261986","126.864742"
"서울특별시","양천구","지하철역","오목교","서울특별시 양천구 목동 406-30 오목교역","서울특별시 양천구 오목로 지하342 (목동)","02-6311-5211","37.5244500","126.875354"
"서울특별시","영등포구","지하철역","양평","서울특별시 영등포구 양평동2가 33-79 양평역","서울특별시 영등포구 양산로 지하21(양평동2가)","02-6311-5221","37.5255116","126.886865"
"서울특별시","영등포구","지하철역","영등포구청","서울특별시 영등포구 당산동3가 270-1 영등포구청역","서울특별시 영등포구 당산로 지하 121 (당산동3가)","02-6311-5231","37.5256996","126.896626"
"서울특별시","영등포구","지하철역","영등포시장","서울특별시 영등포구 영등포동5가 62-1 영등포시장역","서울특별시 영등포구 양산로 지하200 (영등포동5가)","02-6311-5241","37.5227345","126.904959"
"서울특별시","영등포구","지하철역","신길","서울특별시 영등포구 영등포동1가 35 신길역","서울특별시 영등포구 경인로114가길 지하9 (영등포동1가)","02-6311-5251","37.5176677","126.914336"
"서울특별시","영등포구","지하철역","여의도","서울특별시 영등포구 여의도동 3 여의도역","서울특별시 영등포구 여의나루로 지하40 (여의도동)","02-6311-5261","37.5218423","126.924484"
"서울특별시","영등포구","지하철역","여의나루","서울특별시 영등포구 여의도동 84-4 여의나루역","서울특별시 영등포구 여의동로 지하343 (여의도동)","02-6311-5271","37.5270851","126.932864"
"서울특별시","마포구","지하철역","마포","서울특별시 마포구 도화동 160 마포역","서울특별시 마포구 마포대로 지하33 (도화동)","02-6311-5281","37.5395837","126.945920"
"서울특별시","마포구","지하철역","공덕","서울특별시 마포구 공덕동 423-29 공덕역","서울특별시 마포구 마포대로 지하100(공덕동)","02-6311-5291","37.5445267","126.951363"
"서울특별시","마포구","지하철역","애오개","서울특별시 마포구 아현동 612 애오개역","서울특별시 마포구 마포대로 지하210 (아현동)","02-6311-5301","37.5533624","126.956613"
"서울특별시","서대문구","지하철역","충정로","서울특별시 서대문구 충정로3가 248-1 충정로역(5호선)","서울특별시 서대문구 충정로 28-1","02-6311-5311","37.5609934","126.963373"
"서울특별시","종로구","지하철역","서대문","서울특별시 종로구 평동 210 서대문역","서울특별시 종로구 통일로 지하126 (평동)","02-6311-5321","37.5658562","126.966637"
"서울특별시","종로구","지하철역","광화문","서울특별시 종로구 세종로 1-68 5호선 광화문역","서울특별시 종로구 세종대로 지하172 (세종로)","02-6311-5331","37.5716228","126.976788"
"서울특별시","종로구","지하철역","종로3가","서울특별시 종로구 종로3가 10-5 1호선 종로3가역","서울특별시 종로구 종로 지하 129 (종로3가)","02-6311-5341","37.5704266","126.992029"
"서울특별시","중구","지하철역","을지로4가","서울특별시 중구 을지로4가 267-1 을지로4가역 2호선","서울특별시 중구 을지로 지하 178 (을지로4가)","02-6311-5351","37.5666369","126.997852"
"서울특별시","중구","지하철역","동대문역사문화공원","서울특별시 중구 을지로7가 112-3 동대문역사문화공원역 2호선","서울특별시 중구 을지로 지하 279 (을지로7가)","02-6311-5361","37.5655895","127.009131"
"서울특별시","중구","지하철역","청구","서울특별시 중구 신당동 295-2 청구역 5,6호선","서울특별시 중구 청구로 지하77(신당동)","02-6311-5371","37.5602939","127.013806"
"서울특별시","성동구","지하철역","신금호","서울특별시 성동구 금호동2가 223-1 신금호역","서울특별시 성동구 금호로 지하154 (금호동2가)","02-6311-5381","37.5545324","127.020064"
"서울특별시","성동구","지하철역","행당","서울특별시 성동구 행당동 317-241 행당역","서울특별시 성동구 행당로 지하89 (행당동)","02-6311-5391","37.5572784","127.029232"
"서울특별시","성동구","지하철역","왕십리","서울특별시 성동구 행당동 192 왕십리역","서울특별시 성동구 왕십리로 지하300 (행당동)","02-6311-5401","37.5612217","127.036655"
"서울특별시","성동구","지하철역","마장","서울특별시 성동구 마장동 804 마장역","서울특별시 성동구 마장로 지하296 (마장동)","02-6311-5411","37.5662827","127.043163"
"서울특별시","성동구","지하철역","답십리","서울특별시 성동구 용답동 99 답십리역","서울특별시 성동구 천호대로 지하300(용답동)","02-6311-5421","37.5664458","127.053181"
"서울특별시","동대문구","지하철역","장한평","서울특별시 동대문구 장안동 472-3 장한평역","서울특별시 동대문구 천호대로 지하405 (장안동)","02-6311-5431","37.5615026","127.064421"
"서울특별시","광진구","지하철역","군자","서울특별시 광진구 능동 275-5","서울특별시 광진구 천호대로 지하550","02-6311-5441","37.5573631","127.079017"
"서울특별시","광진구","지하철역","아차산","서울특별시 광진구 능동 256-16 5호선 아차산역","서울특별시 광진구 천호대로 지하657","02-6311-5451","37.5524011","127.089370"
"서울특별시","광진구","지하철역","광나루","서울특별시 광진구 광장동 237 광나루역5호선","서울특별시 광진구 아차산로 지하571 (광장동)","02-6311-5461","37.5452786","127.103686"
"서울특별시","강동구","지하철역","천호","서울특별시 강동구 천호동 455 천호역","서울특별시 강동구 천호대로 지하997 (천호동)","02-6311-5471","37.5385789","127.123742"
"서울특별시","강동구","지하철역","강동","서울특별시 강동구 천호동 447 강동역","서울특별시 강동구 천호대로 지하1097 (천호동)","02-6311-5481","37.5355205","127.133529"
"서울특별시","강동구","지하철역","길동","서울특별시 강동구 길동 378 길동역","서울특별시 강동구 양재대로 지하1480 (길동)","02-6311-5491","37.5378115","127.139999"
"서울특별시","강동구","지하철역","굽은다리","서울특별시 강동구 명일동 345-12 굽은다리역","서울특별시 강동구 양재대로 지하1572 (명일동)","02-6311-5501","37.5457314","127.142970"
"서울특별시","강동구","지하철역","명일","서울특별시 강동구 명일동 312 명일역","서울특별시 강동구 양재대로 지하1632 (명일동)","02-6311-5511","37.5512602","127.144000"
"서울특별시","강동구","지하철역","고덕","서울특별시 강동구 고덕동 310 고덕역","서울특별시 강동구 고덕로 지하253 (고덕동)","02-6311-5521","37.5550473","127.153949"
"서울특별시","강동구","지하철역","상일동","서울특별시 강동구 상일동 148 상일동역","서울특별시 강동구 고덕로 지하359 (상일동)","02-6311-5531","37.5566643","127.165829"
"서울특별시","강동구","지하철역","둔촌동","서울특별시 강동구 둔촌동 416 둔촌역","서울특별시 강동구 양재대로 지하1369 (둔촌동)","02-6311-5541","37.5276413","127.136190"
"서울특별시","송파구","지하철역","올림픽공원","서울특별시 송파구 방이동 89-28 올림픽공원역","서울특별시 송파구 양재대로 지하1233","02-6311-5551","37.5160876","127.130600"
"서울특별시","송파구","지하철역","방이","서울특별시 송파구 방이동 217-2 방이역","서울특별시 송파구 양재대로 지하1127 (방이동)","02-6311-5561","37.5085564","127.125854"
"서울특별시","송파구","지하철역","오금","서울특별시 송파구 오금동 44-2 오금역","서울특별시 송파구 오금로 지하 321 (오금동)","02-6110-3521","37.5022659","127.127879"
"서울특별시","송파구","지하철역","개롱","서울특별시 송파구 가락동 165-2 개롱역","서울특별시 송파구 오금로 지하402 (가락동)","02-6311-5581","37.4978146","127.135158"
"서울특별시","송파구","지하철역","거여","서울특별시 송파구 거여동 20-14 거여역","서울특별시 송파구 오금로 지하499(거여동)","02-6311-5591","37.4932073","127.144032"
"서울특별시","송파구","지하철역","마천","서울특별시 송파구 마천동 307-4 마천역","서울특별시 송파구 마천로57길 지하7(마천동)","02-6311-5601","37.4946706","127.152320"
"서울특별시","은평구","지하철역","응암","서울특별시 은평구 신사동 22-15 6호선 응암역사무소","서울특별시 은평구 증산로 지하477 (역촌동)","02-6311-6101","37.5987423","126.915512"
"서울특별시","은평구","지하철역","역촌","서울특별시 은평구 녹번동 153-31 6호선 역촌역사무소","서울특별시 은평구 서오릉로 지하63 (녹번동)","02-6311-6111","37.6060390","126.922967"
"서울특별시","은평구","지하철역","불광","서울특별시 은평구 대조동 13-10 3,6호선 불광역사무소","서울특별시 은평구 통일로 지하 723-1 (대조동)","02-6311-6121","37.6102072","126.929985"
"서울특별시","은평구","지하철역","독바위","서울특별시 은평구 불광동 13-33 6호선 독바위역사무소","서울특별시 은평구 불광로 지하129-1 (불광동)","02-6311-6131","37.6183988","126.932810"
"서울특별시","은평구","지하철역","연신내","서울특별시 은평구 갈현동 397 3,6호선 연신내역사무소","서울특별시 은평구 통일로 지하 849 (갈현동)","02-6311-6141","37.618962","126.921162"
"서울특별시","은평구","지하철역","구산","서울특별시 은평구 구산동 1 6호선 구산역사무소","서울특별시 은평구 연서로 지하137-1(구산동)","02-6311-6151","37.6112122","126.917182"
"서울특별시","은평구","지하철역","새절","","서울특별시 은평구 증산로 지하400 (신사동","02-6311-6161","37.5918270","126.913912"
"서울특별시","은평구","지하철역","증산","서울특별시 은평구 증산동 199-8 6호선 증산역사무소","서울특별시 은평구 증산로 지하306(증산동)","02-6311-6171","37.5841954","126.910057"
"서울특별시","은평구","지하철역","디지털미디어시티","서울특별시 은평구 증산동 223-25 6호선 디지털미디어시티역","서울특별시 은평구 수색로 지하175 (증산동)","02-6311-6181","37.5771614","126.901928"
"서울특별시","마포구","지하철역","월드컵경기장","서울특별시 마포구 성산동 420 월드컵경기장역","서울특별시 마포구 월드컵로 지하240 (성산동)","02-6311-6191","37.5699425","126.899033"
"서울특별시","마포구","지하철역","마포구청","서울특별시 마포구 성산동 592 마포구청역","서울특별시 마포구 월드컵로 지하190 (성산동)","02-6311-6201","37.5634263","126.903357"
"서울특별시","마포구","지하철역","망원","서울특별시 마포구 망원동 378 망원역","서울특별시 마포구 월드컵로 지하77 (망원동)","02-6311-6211","37.5560572","126.910033"
"서울특별시","마포구","지하철역","합정","서울특별시 마포구 합정동 414 합정역","서울특별시 마포구 양화로 지하 45","02-6311-6221","37.5491226","126.913544"
"서울특별시","마포구","지하철역","상수","서울특별시 마포구 상수동 309-10 상수역","서울특별시 마포구 독막로 지하85 (상수동)","02-6311-6231","37.5477716","126.922409"
"서울특별시","마포구","지하철역","광흥창","서울특별시 마포구 창전동 145-17 광흥창역","서울특별시 마포구 독막로 지하 165","02-6311-6241","37.5474860","126.931939"
"서울특별시","마포구","지하철역","대흥","서울특별시 마포구 대흥동 128-1 대흥역","서울특별시 마포구 대흥로 지하 85","02-6311-6251","37.5476683","126.942465"
"서울특별시","마포구","지하철역","공덕","서울특별시 마포구 공덕동 439 공덕역","서울특별시 마포구 백범로 지하 200(공덕동)","02-6311-5291","37.5435269","126.951947"
"서울특별시","용산구","지하철역","효창공원앞","서울특별시 용산구 효창동 80 6호선 효창공원앞역","서울특별시 용산구 백범로 지하287 (효창동)","02-6311-6271","37.5393340","126.961318"
"서울특별시","용산구","지하철역","삼각지","서울특별시 용산구 한강로1가 228-1 4호선 삼각지역","서울특별시 용산구 한강대로 지하 180 (한강로1가)","02-6311-6281","37.5345937","126.973011"
"서울특별시","용산구","지하철역","녹사평","서울특별시 용산구 용산동4가 4 6호선 녹사평역","서울특별시 용산구 녹사평대로 지하195 (용산동4가)","02-6311-6291","37.5348314","126.987028"
"서울특별시","용산구","지하철역","이태원","서울특별시 용산구 이태원동 119-23 6호선 이태원역","서울특별시 용산구 이태원로 지하177(이태원동)","02-6311-6301","37.5344832","126.993721"
"서울특별시","용산구","지하철역","한강진","서울특별시 용산구 한남동 726-494 6호선 한강진역","서울특별시 용산구 이태원로 지하287 (한남동)","02-6311-6311","37.5402951","127.001748"
"서울특별시","중구","지하철역","버티고개","서울특별시 중구 신당동 366-454 버티고개역 6호선","서울특별시 중구 다산로 지하38 (신당동)","02-6311-6321","37.547995","127.006885"
"서울특별시","중구","지하철역","약수","","서울특별시 중구 다산로 지하 155 (신당동)","02-6311-6331","",""
"서울특별시","중구","지하철역","청구","서울특별시 중구 신당동 295-2 청구역 5,6호선","서울특별시 중구 청구로 지하77(신당동)","02-6311-5371","37.5602939","127.013806"
"서울특별시","중구","지하철역","신당","서울특별시 중구 신당동 99 신당역 2호선","서울특별시 중구 퇴계로 지하 431-1 (신당동)","02-6311-6351","37.5656540","127.019540"
"서울특별시","종로구","지하철역","동묘앞","서울특별시 종로구 숭인동 117 동묘앞역","서울특별시 종로구 종로 359 (숭인동)","02-6311-6361","37.5733722","127.016751"
"서울특별시","종로구","지하철역","창신","서울특별시 종로구 창신동 20-8 6호선 창신역","서울특별시 종로구 지봉로 지하112 (창신동)","02-6311-6371","37.5800168","127.015211"
"서울특별시","성북구","지하철역","보문","서울특별시 성북구 보문동1가 127-1 보문역","서울특별시 성북구 보문로 지하116 (보문동1가)","02-6311-6381","37.5853277","127.019387"
"서울특별시","성북구","지하철역","안암","서울특별시 성북구 안암동5가 146-1 안암역","서울특별시 성북구 고려대로 지하89 (안암동5가)","02-6311-6391","37.5862804","127.029213"
"서울특별시","성북구","지하철역","고려대","서울특별시 성북구 종암동 29-18 고려대역","서울특별시 성북구 종암로 지하1 (종암동)","02-6311-6401","37.5906496","127.036284"
"서울특별시","성북구","지하철역","월곡","서울특별시 성북구 하월곡동 35-1 월곡역","서울특별시 성북구 월곡로 지하107 (하월곡동)","02-6311-6411","37.6014210","127.041184"
"서울특별시","성북구","지하철역","상월곡","서울특별시 성북구 상월곡동 26-1 상월곡역","서울특별시 성북구 화랑로 지하157 (상월곡동)","02-6311-6421","37.6062641","127.048326"
"서울특별시","성북구","지하철역","돌곶이","서울특별시 성북구 석관동 349-8 돌곶이역","서울특별시 성북구 화랑로 지하243 (석관동)","02-6311-6431","37.6105507","127.056425"
"서울특별시","노원구","지하철역","석계","서울특별시 노원구 월계동 25-2 석계역 6호선","서울특별시 노원구 화랑로 지하347-1 (월계동)","02-6311-6441","37.6150480","127.066118"
"서울특별시","노원구","지하철역","태릉입구","서울특별시 노원구 공릉동 616-4 태릉입구역","서울특별시 노원구 동일로 지하992-1 (공릉동)","02-6311-7171","37.6179056","127.074995"
"서울특별시","노원구","지하철역","화랑대","서울특별시 노원구 공릉동 285-2 화랑대역 6호선","서울특별시 노원구 화랑로 지하510","02-6311-6461","37.6198943","127.083744"
"서울특별시","중랑구","지하철역","봉화산","서울특별시 중랑구 신내동 643-1 봉화산역","서울특별시 중랑구 신내로 지하232 (신내동)","02-6311-6471","37.6176537","127.090758"
"서울특별시","중랑구","지하철역","신내","서울특별시 중랑구 신내동 19 신내차량기지사업소","서울특별시 중랑구 용마산로136길 33","02-6311-6481","37.6100945","127.110258"
"서울특별시","도봉구","지하철역","도봉산","서울특별시 도봉구 도봉동 38-3 도봉산역7호선","서울특별시 도봉구 도봉로 964-40 (도봉동)","02-6311-7101","37.6891205","127.046528"
"서울특별시","노원구","지하철역","수락산","서울특별시 노원구 상계동 1132-9 수락산역","서울특별시 노원구 동일로 지하1662 (상계동)","02-6311-7111","37.6776259","127.055374"
"서울특별시","노원구","지하철역","마들","서울특별시 노원구 상계동 650 마들역","서울특별시 노원구 동일로 지하1530-1 (상계동)","02-6311-7121","37.6650864","127.057687"
"서울특별시","노원구","지하철역","노원","서울특별시 노원구 상계동 602-5 노원역 4호선","서울특별시 노원구 상계로 69-1 (상계동)","02-6311-7131","37.6562677","127.063030"
"서울특별시","노원구","지하철역","중계","서울특별시 노원구 중계동 503-3 중계역","서울특별시 노원구 동일로 지하1308-1 (중계동)","02-6311-7141","37.6448906","127.064246"
"서울특별시","노원구","지하철역","하계","서울특별시 노원구 하계동 273-5 하계역","서울특별시 노원구 동일로 지하1196(하계동)","02-6311-7151","37.6364521","127.067988"
"서울특별시","노원구","지하철역","공릉","서울특별시 노원구 공릉동 385-4 공릉역","서울특별시 노원구 동일로 지하1074","02-6311-7161","37.6254769","127.073005"
"서울특별시","노원구","지하철역","태릉입구","서울특별시 노원구 공릉동 616-4 태릉입구역","서울특별시 노원구 동일로 지하992-1 (공릉동)","02-6311-7171","37.6179056","127.074995"
"서울특별시","중랑구","지하철역","먹골","서울특별시 중랑구 묵동 189-5 먹골역","서울특별시 중랑구 동일로 지하901 (묵동)","02-6311-7181","37.6106250","127.077764"
"서울특별시","중랑구","지하철역","중화","서울특별시 중랑구 중화동 50-3 중화역","서울특별시 중랑구 동일로 지하797 (중화동)","02-6311-7191","37.6015797","127.079469"
"서울특별시","중랑구","지하철역","상봉","","서울특별시 중랑구 망우로 지하 297","02-6311-7201","",""
"서울특별시","중랑구","지하철역","면목","서울특별시 중랑구 면목동 282-6 면목역","서울특별시 중랑구 면목로 지하407(면목동,면목역)","02-6311-7211","37.5883849","127.087567"
"서울특별시","중랑구","지하철역","사가정","서울특별시 중랑구 면목동 495 사가정역","서울특별시 중랑구 사가정로 지하393 (면목동)","02-6311-7221","37.5807945","127.088439"
"서울특별시","중랑구","지하철역","용마산","서울특별시 중랑구 면목동 1316-5 용마산역","서울특별시 중랑구 용마산로 지하227(면목동)","02-6311-7231","37.5740302","127.087038"
"서울특별시","광진구","지하철역","중곡","서울특별시 광진구 중곡동 273-2 7호선 중곡역","서울특별시 광진구 능동로 지하417 (중곡동)","02-6311-7241","37.5655258","127.084072"
"서울특별시","광진구","지하철역","군자","서울특별시 광진구 능동 275-5","서울특별시 광진구 천호대로 지하550","02-6311-5441","37.5573631","127.079017"
"서울특별시","광진구","지하철역","어린이대공원","서울특별시 광진구 화양동 164-1 7호선 어린이대공원역","서울특별시 광진구 능동로 지하210(화양동)","02-6311-7261","37.5478712","127.074549"
"서울특별시","광진구","지하철역","건대입구","서울특별시 광진구 화양동 4-20 스타시티영존빌딩","서울특별시 광진구 능동로110(화양동6-3)","02-6311-7271","37.5406579","127.071411"
"서울특별시","광진구","지하철역","뚝섬유원지","서울특별시 광진구 자양동 73-2 7호선 뚝섬유원지역","서울특별시 광진구 능동로 10 (자양동)","02-6311-7281","37.5315862","127.066717"
"서울특별시","강남구","지하철역","청담","서울특별시 강남구 청담동 77-76 청담역","서울특별시 강남구 학동로 지하508 (청담동)","02-6311-7291","37.5194406","127.053644"
"서울특별시","강남구","지하철역","강남구청","서울특별시 강남구 삼성동 111-44 강남구청역","서울특별시 강남구 학동로 지하346 (삼성동)","02-6311-7301","37.5171892","127.041301"
"서울특별시","강남구","지하철역","학동","서울특별시 강남구 논현동 279-67 학동역","서울특별시 강남구 학동로 지하180(논현동)","02-6311-7311","37.5142064","127.031463"
"서울특별시","강남구","지하철역","논현","서울특별시 강남구 논현동 279-67 논현역","서울특별시 강남구 학동로 지하102(논현동)","02-6311-7321","37.5111988","127.021657"
"서울특별시","서초구","지하철역","반포","서울특별시 서초구 잠원동 103 반포역","서울특별시 서초구 신반포로 지하241(잠원동)","02-6311-7331","37.5081263","127.011497"
"서울특별시","서초구","지하철역","고속터미널","서울특별시 서초구 반포동 19-11 강남고속터미널역","서울특별시 서초구 신반포로 지하 188 (반포동)","02-6311-7341","37.5046471","127.004442"
"서울특별시","서초구","지하철역","내방","서울특별시 서초구 방배동 874-16 내방역","서울특별시 서초구 서초대로 지하103 (방배동)","02-6311-7351","37.4875335","126.993190"
"서울특별시","동작구","지하철역","이수","서울특별시 동작구 사당동 144-4 이수역(7호선)","서울특별시 동작구 사당로 지하310 (사당동)","02-6311-7361","37.4850151","126.981021"
"서울특별시","동작구","지하철역","남성","서울특별시 동작구 사당동 산25-33 남성역 7호선","서울특별시 동작구 사당로 지하218 (사당동)","02-6311-7371","37.4844433","126.971706"
"서울특별시","동작구","지하철역","숭실대입구","서울특별시 동작구 상도동 514 7호선 숭실대입구역","서울특별시 동작구 상도로 지하 378","02-6311-7381","37.4958143","126.954060"
"서울특별시","동작구","지하철역","상도","서울특별시 동작구 상도1동 702-1 상도역(중대입구역)7호선","서울특별시 동작구 상도로 지하272(상도1동)","02-6311-7392","37.5032080","126.947700"
"서울특별시","동작구","지하철역","장승배기","서울특별시 동작구 상도동 26-20 장승배기역","서울특별시 동작구 상도로 지하188(상도동)","02-6311-7401","37.5046658","126.938744"
"서울특별시","동작구","지하철역","신대방삼거리","서울특별시 동작구 대방동 406-10 7호선 신대방삼거리역","서울특별시 동작구 상도로 지하76 (대방동)","02-6311-7411","37.4997218","126.928223"
"서울특별시","동작구","지하철역","보라매","서울특별시 동작구 대방동 466-51 7호선 보라매역","서울특별시 동작구 상도로 지하2(대방동)","02-6311-7421","37.4999100","126.920489"
"서울특별시","영등포구","지하철역","신풍","서울특별시 영등포구 신길동 3599 신풍역","서울특별시 영등포구 신풍로 지하27(신길동)","02-6311-7431","37.5001172","126.909841"
"서울특별시","영등포구","지하철역","대림","서울특별시 영등포구 대림동 1050-17 대림역","서울특별시 영등포구 도림로 지하137","02-6311-7441","37.4927430","126.896611"
"서울특별시","구로구","지하철역","남구로","서울특별시 구로구 구로동 801-95 남구로역","서울특별시 구로구 도림로 지하7(구로동)","02-6311-7451","37.4861618","126.887341"
"서울특별시","금천구","지하철역","가산디지털단지","서울특별시 금천구 가산동 468-4 가산디지털단지역","서울특별시 금천구 벚꽃로 309 (가산동)","02-6311-7461","37.4815957","126.882559"
"서울특별시","구로구","지하철역","천왕","서울특별시 구로구 천왕동 14-25 천왕역","서울특별시 구로구 오리로 지하1154(오류동)","02-6311-7491","37.4868219","126.838713"
"서울특별시","구로구","지하철역","온수","서울특별시 구로구 온수동 119 7호선 온수역","서울특별시 구로구 경인로3길 지하64 (온수동)","02-6311-7501","37.4921502","126.823380"
"서울특별시","강동구","지하철역","암사","서울특별시 강동구 암사동 501 암사역","서울특별시 강동구 올림픽로 지하776 (암사동)","02-6311-8101","37.5501403","127.127540"
"서울특별시","강동구","지하철역","천호","서울특별시 강동구 천호동 455 천호역","서울특별시 강동구 천호대로 지하997 (천호동)","02-6311-5471","37.5385789","127.123742"
"서울특별시","강동구","지하철역","강동구청","서울특별시 강동구 성내동 319 강동구청역","서울특별시 강동구 올림픽로 지하550 (성내동)","02-6311-8121","37.5306740","127.120576"
"서울특별시","송파구","지하철역","몽촌토성","서울특별시 송파구 신천동 19 몽촌토성역","서울특별시 송파구 올림픽로 지하383","02-6311-8131","37.5176236","127.112429"
"서울특별시","송파구","지하철역","잠실","서울특별시 송파구 신천동 8 잠실역2호선","서울특별시 송파구 올림픽로 지하 265 (잠실동)","02-6311-8141","37.5138592","127.101857"
"서울특별시","송파구","지하철역","석촌","서울특별시 송파구 석촌동 209 석촌역","서울특별시 송파구 송파대로 지하439(석촌동)","02-6311-8151","37.5059496","127.106345"
"서울특별시","송파구","지하철역","송파","서울특별시 송파구 가락동 459-4 송파역","서울특별시 송파구 송파대로 지하354 (가락동)","02-6311-8161","37.4996866","127.112179"
"서울특별시","송파구","지하철역","가락시장","서울특별시 송파구 가락동 184-23 가락시장역","서울특별시 송파구 송파대로 지하 257 (가락동)","02-6311-8171","37.4927440","127.118485"
"서울특별시","송파구","지하철역","문정","서울특별시 송파구 문정동 119-4 문정역","서울특별시 송파구 송파대로 지하179 (문정동)","02-6311-8181","37.4862618","127.122290"
"서울특별시","송파구","지하철역","장지","서울특별시 송파구 장지동 201-5 장지역","서울특별시 송파구 송파대로 지하82(장지동)","02-6311-8191","37.4781192","127.126424"
"서울특별시","송파구","지하철역","복정","서울특별시 송파구 장지동 596-21 복정역","서울특별시 송파구 송파대로 지하6 (장지동)","02-6311-8201","37.471056","127.126771"
"서울특별시","강남구","지하철역","언주","서울특별시 강남구 논현동 279-165 언주역","서울특별시 강남구 봉은사로 지하 201","02-2656-0926","37.5074455","127.034284"
"서울특별시","강남구","지하철역","선정릉","서울특별시 강남구 삼성동 111-114 선정릉역","서울특별시 강남구 선릉로 지하 580","02-2656-0927","37.5108538","127.043641"
"서울특별시","강남구","지하철역","삼성중앙","서울특별시 강남구 삼성동 111-147 삼성중앙역","서울특별시 강남구 봉은사로 지하 501","02-2656-0928","37.5128830","127.052705"
"서울특별시","강남구","지하철역","봉은사","서울특별시 강남구 삼성동 172 봉은사역","서울특별시 강남구 봉은사로 지하 601","02-2656-0929","37.5143606","127.060891"
"서울특별시","송파구","지하철역","종합운동장","서울특별시 송파구 잠실동 122 종합운동장역","서울특별시 송파구 올림픽로 지하 23","02-2656-0930","37.5109692","127.073356"
"서울특별시","송파구","지하철역","삼전","서울특별시 송파구 잠실동 250-5 파크인-수","서울특별시 송파구 백제고분로 187","02-2656-0931","37.5047453","127.087781"
"서울특별시","송파구","지하철역","석촌고분","서울특별시 송파구 삼전동 180-8 태영빌딩","서울특별시 송파구 삼학사로 53","02-2656-0932","37.5020188","127.096617"
"서울특별시","송파구","지하철역","석촌","서울특별시 송파구 석촌동 209 석촌역","서울특별시 송파구 송파대로 439","02-2656-0933","37.5059496","127.106345"
"서울특별시","송파구","지하철역","송파나루","서울특별시 송파구 방이동 110-13","서울특별시 송파구 오금로 165","02-2656-0934","37.5101203","127.113123"
"서울특별시","송파구","지하철역","한성백제","서울특별시 송파구 방이동 88-21 서울올림픽미술관","서울특별시 송파구 위례성대로 51","02-2656-0935","37.5168648","127.118184"
"서울특별시","송파구","지하철역","올림픽공원","서울특별시 송파구 방이동 89-28 올림픽공원역","서울특별시 송파구 양재대로 1233","02-2656-0936","37.5160876","127.130600"
"서울특별시","송파구","지하철역","둔촌오륜","","서울특별시 송파구 강동대로 327","02-2656-0937","",""
"서울특별시","강동구","지하철역","중앙보훈병원","서울특별시 강동구 둔촌동 545 둔촌하이츠아파트","서울특별시 강동구 명일로 117","02-2656-0938","37.5296118","127.142755"
"서울특별시","서대문구","지하철역","신촌역","","서울특별시 서대문구 대현동 74-12","1544-7788","",""
"서울특별시","중랑구","지하철역","중랑역","서울특별시 중랑구 중화동 321-37","서울특별시 중랑구 중화동 321-37","1544-7788","37.5950125","127.074833"
"서울특별시","영등포구","쇼핑몰","더현대 서울","서울특별시 영등포구 여의도동 22 파크원","서울특별시 영등포구 여의대로 108(여의도동)","02-767-2233","37.5251913","126.929112"
"서울특별시","양천구","쇼핑몰","경창시장","서울특별시 양천구 신월동 447-8","서울특별시 양천구 오목로9길 31(신월동)","02-2606-5988","37.5249341","126.842121"
"서울특별시","양천구","쇼핑몰","신영시장","서울특별시 양천구 신월동 114-18 신영시장고객지원센터","서울특별시 양천구 월정로 161-5(신월동)","02-2604-3319","38.0749847","128.622267"
"서울특별시","종로구","쇼핑몰","인사동 고미술거리","서울특별시 종로구 관훈동 197-4","서울특별시 종로구 인사동길 29(관훈동)","02-732-2235","38.1068678","127.990661"
"서울특별시","강남구","쇼핑몰","카카오프렌즈 브랜드스토어","서울특별시 강남구 삼성동 159 코엑스","서울특별시 강남구 영동대로 513(삼성동)","02-6002-1880","37.8772354","127.734114"
"서울특별시","중구","쇼핑몰","남대문 메사 (MESA)","서울특별시 중구 회현동1가 204 MESA","서울특별시 중구 남대문시장10길 2(회현동1가)","02-2128-7800","35.5859807","128.881603"
"서울특별시","용산구","쇼핑몰","이태원시장","서울특별시 용산구 이태원동 56-9 이태원시장","서울특별시 용산구 이태원로14길 6(이태원동)","02-794-5682","36.6013024","128.005838"
"서울특별시","송파구","쇼핑몰","서울책보고","서울특별시 송파구 신천동 14","서울특별시 송파구 오금로 1(신천동)","02-6951-4979","36.8424280","126.881256"
"서울특별시","광진구","쇼핑몰","커먼그라운드","서울특별시 광진구 자양동 17-1","서울특별시 광진구 아차산로 200(자양동)","02-467-2747","37.3500121","127.949192"
"서울특별시","중구","쇼핑몰","서울 중앙시장","서울특별시 중구 황학동 442","서울특별시 중구 퇴계로85길 36(황학동)","02-2232-9559","37.3253721","126.805088"
"서울특별시","영등포구","쇼핑몰","롯데마트 (서울양평점)","서울특별시 영등포구 양평동3가 45 롯데마트 양평점","서울특별시 영등포구 선유로 138(양평동3가)","02-450-2500","37.3975683","126.919668"
"서울특별시","강남구","쇼핑몰","하우스 도산","서울특별시 강남구 신사동 649-8 QUEENMAMA MARKET","서울특별시 강남구 압구정로46길 50(신사동)","070-4128-2126","35.8453940","129.216312"
"서울특별시","종로구","쇼핑몰","통인시장","서울특별시 종로구 통인동 10-3","서울특별시 종로구 자하문로15길 18(통인동)","02-722-0911","35.8154226","127.126893"
"서울특별시","종로구","쇼핑몰","동대문 종합시장·동대문 쇼핑타운","서울특별시 종로구 종로6가 262-1 동대문종합시장","서울특별시 종로구 종로 266(종로6가)","02-2262-0114","37.7540235","128.898623"
"서울특별시","중구","쇼핑몰","서울 평화시장","서울특별시 중구 을지로6가 17-48","서울특별시 중구 청계천로 274(을지로6가)","02-2265-3531","35.2222148","128.68338"
"서울특별시","종로구","쇼핑몰","종로3가 귀금속 전문상가","서울특별시 종로구 종로3가 23-1","서울특별시 종로구 돈화문로 23(종로3가)","02-2148-1862","36.6328167","127.654656"
"서울특별시","마포구","쇼핑몰","동진시장","서울특별시 마포구 연남동 227-15","서울특별시 마포구 성미산로 198(연남동)","02-325-9559","35.0973261","129.034523"
"서울특별시","중구","쇼핑몰","남대문 안경상가","서울특별시 중구 남창동 34-1","서울특별시 중구 남대문시장4길 2(남창동)","02-753-2805","33.2677894","126.573741"
"서울특별시","송파구","쇼핑몰","가든파이브 (Garden5)","서울특별시 송파구 문정동 634 가든파이브라이프","서울특별시 송파구 충민로 66(문정동)","02-2157-0100","37.5701125","126.999707"
"서울특별시","강남구","쇼핑몰","영풍문고 스타필드코엑스몰점","서울특별시 강남구 삼성동 159 코엑스","서울특별시 강남구 영동대로 513(삼성동)","02-6002-2718","36.3300561","127.433871"
"서울특별시","양천구","쇼핑몰","목3동시장(목동깨비시장)","서울특별시 양천구 목동 610-19","서울특별시 양천구 목동중앙북로 29(목동)","02-2644-3238","37.5062203","127.005051"
"서울특별시","중구","쇼핑몰","방산 종합시장","서울특별시 중구 주교동 19-1 방산종합시장","서울특별시 중구 동호로37길 20(주교동)","02-2268-6691","34.7877703","126.389873"
"서울특별시","종로구","쇼핑몰","광장시장 한복매장","서울특별시 종로구 예지동 2-1","서울특별시 종로구 창경궁로 88(예지동)","02-2272-0967","38.2039889","128.590552"
"서울특별시","영등포구","쇼핑몰","IFC몰","","","02-6137-5000","37.2133876","126.736900"
"서울특별시","서초구","쇼핑몰","고투몰(강남터미널 지하도상가)","서울특별시 서초구 잠원동 68-17 강남터미널지하쇼핑몰","서울특별시 서초구 신반포로 지하200(잠원동)","02-535-8182","37.7178192","126.693761"
"서울특별시","용산구","쇼핑몰","스토리지북앤필름","서울특별시 용산구 용산동2가 1-701","서울특별시 용산구 신흥로 115-1(용산동2가)","070-5103-9975","37.1148685","127.630763"
"서울특별시","종로구","쇼핑몰","한국공예관","서울특별시 종로구 관훈동 196-6","서울특별시 종로구 인사동길 33(관훈동)","02-720-3301","34.8412843","128.419421"
"서울특별시","영등포구","쇼핑몰","대림중앙시장","서울특별시 영등포구 대림동 1072-25","서울특별시 영등포구 디지털로37나길 21(대림동)","02-833-8113","35.1614038","129.162315"
"서울특별시","송파구","쇼핑몰","지오 송지오(ZIO SONGZIO) 문정점","서울특별시 송파구 문정동 40-8","서울특별시 송파구 동남로4길 22(문정동)","02-403-9910","35.0588379","129.010176"
"서울특별시","강남구","쇼핑몰","록시땅 (Loccitane)","서울특별시 강남구 신사동 579-3 베네하임시티","서울특별시 강남구 압구정로 162(신사동)","02-511-2427","35.1011196","129.028572"
"서울특별시","중구","쇼핑몰","남대문 종합상가","서울특별시 중구 남창동 49-1","서울특별시 중구 남대문시장4길 21(남창동)","02-753-2805","35.8122309","127.152290"
"서울특별시","서대문구","쇼핑몰","밀리오레 (신촌점)","서울특별시 서대문구 신촌동 74-12 신촌민자역사","서울특별시 서대문구 신촌역로 30(신촌동)","","36.0466943","129.368770"
"서울특별시","종로구","쇼핑몰","승진완구","서울특별시 종로구 창신동 390-3","서울특별시 종로구 종로52길 30(창신동)","02-747-1900","37.5069023","127.023801"
"서울특별시","용산구","쇼핑몰","용산전자랜드","서울특별시 용산구 한강로3가 16-9 전자랜드","서울특별시 용산구 청파로 74(한강로3가)","02-707-4700","36.0890692","129.160700"
"서울특별시","중구","쇼핑몰","퇴계로 오토바이상가","서울특별시 중구 충무로4가 133-35","서울특별시 중구 퇴계로39길 12-8(충무로4가)","","37.5270431","127.044944"
"서울특별시","강남구","쇼핑몰","금강제화 (강남본점)","서울특별시 강남구 논현동 165-1 논현빌딩","서울특별시 강남구 강남대로 500(논현동)","02-541-8081","37.1160290","126.681274"
"서울특별시","금천구","쇼핑몰","마리오아울렛","서울특별시 금천구 가산동 60-52 마리오2 패션타워","서울특별시 금천구 디지털로9길 23(가산동)","02-2109-7000","35.9189841","128.974860"
"서울특별시","강남구","쇼핑몰","까르띠에 메종","서울특별시 강남구 청담동 141-14 메종로리에빌딩","서울특별시 강남구 압구정로 435(청담동)","02-3440-5500","37.6610286","126.768307"
"서울특별시","중구","쇼핑몰","롯데면세점 (본점)","서울특별시 중구 소공동 1 롯데호텔","서울특별시 중구 을지로 30(소공동)","1688-3000","37.2592264","127.031314"
"서울특별시","종로구","쇼핑몰","우석공예사","서울특별시 종로구 예지동 2-1","서울특별시 종로구 창경궁로 88(예지동)","02-2279-0041","35.1603455","129.059551"
"서울특별시","강남구","쇼핑몰","논현 가구거리","서울특별시 강남구 논현동 121","서울특별시 강남구 학동로 106(논현동)","","37.6907239","127.882660"
"서울특별시","종로구","쇼핑몰","낙원 악기상가","서울특별시 종로구 낙원동 288 낙원상가","서울특별시 종로구 삼일대로 428(낙원동)","1599-1968","37.6774434","127.492116"
"서울특별시","강남구","쇼핑몰","풍월당","서울특별시 강남구 신사동 657-37 신사동 C/K빌딩","서울특별시 강남구 도산대로53길 39(신사동)","02-512-2222","37.5113096","127.098141"
"서울특별시","용산구","쇼핑몰","꼼데가르송 (Comme des Garcons)","서울특별시 용산구 한남동 739-1","서울특별시 용산구 이태원로 261(한남동)","02-749-1153","37.7347657","127.415860"
"서울특별시","중구","쇼핑몰","을지로 철제가구거리","서울특별시 중구 을지로4가 323 을지트윈타워","서울특별시 중구 을지로 170(을지로4가)","","37.8848145","127.724649"
"서울특별시","중구","쇼핑몰","부르뎅 아동복 (Burdeng)","서울특별시 중구 남창동 31-11","서울특별시 중구 남대문시장8길 14(남창동)","02-755-5737","35.4701430","128.652251"
"서울특별시","송파구","쇼핑몰","롯데월드 쇼핑몰","서울특별시 송파구 잠실동 40-1 롯데월드","서울특별시 송파구 올림픽로 240(잠실동)","02-411-2111","35.0994086","129.031472"
"서울특별시","광진구","쇼핑몰","프리스비 (Frisbee) 건대점","서울특별시 광진구 자양동 227-342 롯데백화점","서울특별시 광진구 능동로 92(자양동)","02-2218-3195","37.5727599","126.985356"
"서울특별시","서초구","쇼핑몰","센트럴시티","서울특별시 서초구 반포동 19-3 센트럴시티","서울특별시 서초구 신반포로 176(반포동)","02-6282-0114","35.9876523","128.969424"
"서울특별시","종로구","쇼핑몰","한국관광명품점(인사동)","서울특별시 종로구 관훈동 198-31","서울특별시 종로구 인사동5길 14(관훈동)","02-735-6529","37.7005289","126.758591"
"서울특별시","성동구","쇼핑몰","마장 축산물시장","서울특별시 성동구 마장동 510-3","서울특별시 성동구 마장로31길 40(마장동)","02-2281-4446","35.1025504","129.029377"
"서울특별시","종로구","쇼핑몰","동화면세점","서울특별시 종로구 세종로 211 광화문빌딩","서울특별시 종로구 세종대로 149(세종로)","02-399-3000","36.0760830","129.566531"
"서울특별시","중구","쇼핑몰","장안 악세사리상가","서울특별시 중구 남창동 60-12","서울특별시 중구 남대문시장4길 42-2(남창동)","02-753-5600","35.6406486","128.619350"
"서울특별시","중구","쇼핑몰","금강제화 명동본점","서울특별시 중구 명동2가 33-8 랜드로바 명동 본점","서울특별시 중구 명동8길 7(명동2가)","02-753-9411","35.0114829","126.391978"
"서울특별시","송파구","쇼핑몰","올가홀푸드 방이점","서울특별시 송파구 방이동 185-8 올가홀푸드","서울특별시 송파구 양재대로71길 4(방이동)","02-418-6255","37.5701341","127.003025"
"서울특별시","종로구","쇼핑몰","견지동 불교용품거리","서울특별시 종로구 견지동 46-1 조계사","서울특별시 종로구 우정국로 55(견지동)","","37.6374252","128.558225"
"서울특별시","중구","쇼핑몰","청자 수입상가","서울특별시 중구 남창동 49-200","서울특별시 중구 남대문시장4길 29(남창동)","","34.7416128","127.628015"
"서울특별시","서초구","쇼핑몰","양재 양곡도매시장","서울특별시 서초구 양재동 223 양곡도매시장","서울특별시 서초구 양재대로12길 36(양재동)","02-3435-0598","36.3401216","127.393799"
"서울특별시","중구","쇼핑몰","서울 광희시장","서울특별시 중구 신당동 777 광희시장","서울특별시 중구 마장로1길 21(신당동)","02-2232-2882","35.9576605","128.445562"
"서울특별시","중구","쇼핑몰","청계 조명기구상가","서울특별시 중구 산림동 207-2 대림상가","서울특별시 중구 을지로 157(산림동)","","35.3266183","126.985935"
"서울특별시","종로구","쇼핑몰","청계5가 가방도매상가 / 청오가방상가","서울특별시 종로구 종로5가 314-7 청오가방도매상가","서울특별시 종로구 청계천로 229(종로5가)","02-2148-1114","35.1231050","129.044361"
"서울특별시","종로구","쇼핑몰","종로6가 대학천 책방거리","서울특별시 종로구 종로6가 253-6 대학천상가(덕성빌딩)","서울특별시 종로구 종로 258(종로6가)","02-2265-0972","37.5718961","126.987230"
"서울특별시","서초구","쇼핑몰","고속터미널 꽃도매상가","서울특별시 서초구 반포동 19-4 강남고속버스터미널","서울특별시 서초구 신반포로 194(반포동)","02-535-2118","37.6391340","126.490759"
"서울특별시","종로구","쇼핑몰","충무공사","서울특별시 종로구 인사동 43 대일빌딩","서울특별시 종로구 인사동길 12(인사동)","02-737-9700","35.1547273","129.059622"
"서울특별시","중구","쇼핑몰","퀸프라자","서울특별시 중구 남창동 46-29","서울특별시 중구 남대문시장6길 29(남창동)","02-753-2805","35.3625447","127.911679"
"서울특별시","용산구","쇼핑몰","해밀톤 쇼핑센터","서울특별시 용산구 이태원동 108-9 해밀톤호텔 (본관)","서울특별시 용산구 이태원로 179(이태원동)","02-794-0171","37.4584332","126.689825"
"서울특별시","중구","쇼핑몰","남대문 액세사리상가","서울특별시 중구 남창동 49-1","서울특별시 중구 남대문시장4길 21(남창동)","02-778-8932","37.5692814","126.995239"
"서울특별시","강남구","쇼핑몰","디아프바인","서울특별시 강남구 신사동 637-18","서울특별시 강남구 언주로172길 15(신사동)","02-544-2793","36.2395185","128.300921"
"서울특별시","중구","쇼핑몰","삼익패션타운","서울특별시 중구 남창동 5","서울특별시 중구 남대문시장8길 7(남창동)","1566-4578","35.1805346","126.604145"
"서울특별시","종로구","쇼핑몰","세운전자상가(세운전자플라자)","서울특별시 종로구 장사동 116-4 세운상가","서울특별시 종로구 청계천로 159(장사동)","02-2271-2344","35.2381068","127.014906"
"서울특별시","종로구","쇼핑몰","광장시장","서울특별시 종로구 예지동 2-1","서울특별시 종로구 창경궁로 88(예지동)","02-2267-0291","37.5535039","126.923286"
"서울특별시","용산구","쇼핑몰","페라라 코리아","서울특별시 용산구 이태원동 119-18","서울특별시 용산구 이태원로 169(이태원동)","02-797-5117","37.4765967","126.646450"
"서울특별시","영등포구","쇼핑몰","금강제화 영등포본점","서울특별시 영등포구 영등포동3가 9","서울특별시 영등포구 영중로 18(영등포동3가)","02-2678-1052","35.3956493","127.662681"
"서울특별시","강남구","쇼핑몰","클루 (코엑스점)","서울특별시 강남구 삼성동 159 코엑스인터콘티넨탈서울","서울특별시 강남구 봉은사로 524(삼성동)","02-6002-3330","37.5714414","126.998660"
"서울특별시","중구","쇼핑몰","한국의집 사랑 카페앤아트샵","서울특별시 중구 필동2가 80-2 한국의집","서울특별시 중구 퇴계로36길 10(필동2가)","02-2270-1190","37.3106765","127.400787"
"서울특별시","마포구","쇼핑몰","프리스비(Frisbee) 홍대점","서울특별시 마포구 서교동 358-12","서울특별시 마포구 홍익로 11(서교동)","02-323-1765","37.5129437","127.057114"
"서울특별시","종로구","쇼핑몰","크래프트 로담","서울특별시 종로구 화동 138-6","서울특별시 종로구 북촌로5길 39(화동)","02-722-1256","37.1006842","129.009713"
"서울특별시","종로구","쇼핑몰","경일한지백화점","서울특별시 종로구 경운동 47-1 건국빌딩(건국관)","서울특별시 종로구 인사동4길 17(경운동)","02-735-8489","35.1005982","129.028740"
"서울특별시","중구","쇼핑몰","맥스타일 (maxtyle)","서울특별시 중구 신당동 773 맥스타일","서울특별시 중구 마장로 3(신당동)","02-2218-6789","35.1698533","129.131069"
"서울특별시","서초구","쇼핑몰","고속터미널 의류도매상가","서울특별시 서초구 반포동 19-4 강남고속버스터미널","서울특별시 서초구 신반포로 194(반포동)","02-535-2212","37.5248412","127.036806"
"서울특별시","종로구","쇼핑몰","미보 주얼리","서울특별시 종로구 인의동 48-2 효성주얼리시티","서울특별시 종로구 종로 183(인의동)","02-2273-7622","35.1698533","129.131069"
"서울특별시","강남구","쇼핑몰","한얼공예","서울특별시 강남구 삼성동 159 코엑스인터콘티넨탈서울","서울특별시 강남구 봉은사로 524(삼성동)","02-6002-6772","37.5788016","126.982216"
"서울특별시","중구","쇼핑몰","남대문인삼시장","서울특별시 중구 남대문로4가 3-3","서울특별시 중구 남대문시장길 25-8(남대문로4가)","02-752-1012","37.5634116","126.982887"
"서울특별시","마포구","쇼핑몰","KT&G 상상마당 디자인스퀘어","서울특별시 마포구 서교동 367-5 상상마당빌딩","서울특별시 마포구 어울마당로 65(서교동)","02-330-6200","37.5219590","127.041988"
"서울특별시","종로구","쇼핑몰","통인가게","서울특별시 종로구 관훈동 16","서울특별시 종로구 인사동길 32(관훈동)","02-733-4867","37.4906956","127.123854"
"서울특별시","강남구","쇼핑몰","한순례한복침구","서울특별시 강남구 신사동 580 아세아빌딩","서울특별시 강남구 압구정로 164(신사동)","02-3443-6375","36.7673951","127.830157"
"서울특별시","강남구","쇼핑몰","프로젝트루 (Project Rue)","서울특별시 강남구 신사동 647-24","서울특별시 강남구 선릉로153길 32(신사동)","02-545-2747","34.8448510","128.426086"
"서울특별시","종로구","쇼핑몰","은나무","서울특별시 종로구 안국동 19-1","서울특별시 종로구 율곡로3길 72(안국동)","02-730-2867","37.3505292","127.949610"
"서울특별시","중구","쇼핑몰","눈스퀘어","서울특별시 중구 명동2가 83-5 Noon Square","서울특별시 중구 명동길 14(명동2가)","02-3783-5005","37.5709958","126.978914"
"서울특별시","강남구","쇼핑몰","쟈뎅 드 슈에뜨 (Jardin de chouette)","서울특별시 강남구 청담동 21-15","서울특별시 강남구 선릉로146길 27(청담동)","02-3444-4007","37.5756417","126.969248"
"서울특별시","동대문구","쇼핑몰","서울풍물시장","서울특별시 동대문구 신설동 109-5 서울풍물시장","서울특별시 동대문구 천호대로4길 21(신설동)","02-2232-3367","37.4799481","126.856164"
"서울특별시","송파구","쇼핑몰","K2 (문정점)","서울특별시 송파구 가락동 107","서울특별시 송파구 중대로10길 42(가락동)","02-403-9670","35.9848499","126.720217"
"서울특별시","종로구","쇼핑몰","영풍문고 종로점","서울특별시 종로구 서린동 33 영풍빌딩","서울특별시 종로구 청계천로 41(서린동)","1522-2776","37.5733591","126.986084"
"서울특별시","종로구","쇼핑몰","고궁마실","서울특별시 종로구 명륜4가 198-2 한성빌딩","서울특별시 종로구 창경궁로 229(명륜4가)","02-763-9937","37.7692452","126.696502"
"서울특별시","종로구","쇼핑몰","디타워 (replace 광화문)","서울특별시 종로구 청진동 246 D타워","서울특별시 종로구 종로3길 17(청진동)","02-2251-8111","37.5346585","126.993119"
"서울특별시","종로구","쇼핑몰","콰니 (KWANI)","서울특별시 종로구 필운동 240-4","서울특별시 종로구 사직로8길 1-3(필운동)","070-4229-1700","35.6805538","128.697710"
"서울특별시","중구","쇼핑몰","다비치안경 (명동점)","서울특별시 중구 충무로1가 25-15 동암빌딩","서울특별시 중구 소공로 62(충무로1가)","02-752-1074","37.5766192","126.974004"
"서울특별시","중구","쇼핑몰","에뛰드하우스 (명동1호점)","서울특별시 중구 명동2가 31-7","서울특별시 중구 명동8길 35-1(명동2가)","02-753-3771","35.1850621","128.829596"
"서울특별시","중구","쇼핑몰","스파오 (명동점)","서울특별시 중구 충무로1가 24-23 명동하늘빌딩","서울특별시 중구 명동8나길 15(충무로1가)","02-319-3850","35.1002215","129.035652"
"서울특별시","종로구","쇼핑몰","박영숙요 (아틀리에서울)","서울특별시 종로구 관훈동 7","서울특별시 종로구 인사동길 30(관훈동)","02-730-7837","37.5681156","127.008472"
"서울특별시","서초구","쇼핑몰","동양 국악기제작소","서울특별시 서초구 서초동 1533 서초한신리빙타워","서울특별시 서초구 효령로 237(서초동, 서초한신리빙타워)","02-523-7600","37.5748995","126.990638"
"서울특별시","종로구","쇼핑몰","때때롯살롱","서울특별시 종로구 익선동 166-38","서울특별시 종로구 수표로28길 21-12(익선동)","02-704-1369","37.5172332","126.903716"
"서울특별시","용산구","쇼핑몰","노스비치 (North Beach)","서울특별시 용산구 이태원동 119-11","서울특별시 용산구 이태원로 171(이태원동)","02-793-6098","37.5593723","126.976202"
"서울특별시","서대문구","쇼핑몰","유어마인드","","","070-8821-8990","35.1698533","129.131069"
"서울특별시","종로구","쇼핑몰","이서윤한복","서울특별시 종로구 통의동 35-97","서울특별시 종로구 효자로 7(통의동)","02-735-4250","37.5762814","126.971897"
"서울특별시","중구","쇼핑몰","인현시장","","","02-2275-3478","37.5644038","126.922953"
"서울특별시","강남구","쇼핑몰","카플리 코엑스몰점","","","02-6002-3877","36.6433396","127.427835"
"서울특별시","중구","쇼핑몰","밀리오레 (동대문점)","서울특별시 중구 을지로6가 18-185 밀리오레상가건물","서울특별시 중구 장충단로 263(을지로6가)","02-3393-0293","37.5609643","126.862889"
"서울특별시","용산구","쇼핑몰","이바돔 (아이파크몰점)","서울특별시 용산구 한강로3가 40-999 용산역","서울특별시 용산구 한강대로23길 55(한강로3가)","02-2012-3315","35.5380026","129.341756"
"서울특별시","송파구","쇼핑몰","문정동로데오거리","서울특별시 송파구 문정동 41-5","서울특별시 송파구 동남로4길 10(문정동)","02-400-1633","37.5341161","126.990794"
"서울특별시","종로구","쇼핑몰","떡카페 질시루","서울특별시 종로구 와룡동 164-2 인산빌딩","서울특별시 종로구 돈화문로 71(와룡동)","02-741-0258","37.5019421","127.042705"
"서울특별시","영등포구","쇼핑몰","타임스퀘어","서울특별시 영등포구 영등포동4가 442 타임스퀘어","서울특별시 영등포구 영중로 15(영등포동4가)","02-2638-2000","37.5650634","127.001905"
"서울특별시","중구","쇼핑몰","숭례문(남대문) 수입상가","서울특별시 중구 남창동 51-1 롯데손해보험빌딩","서울특별시 중구 소월로 3(남창동)","02-753-2805","37.5739522","126.984762"
"서울특별시","강남구","쇼핑몰","수퍼노말(SUPERNORMAL)","서울특별시 강남구 청담동 80-1 강스빌딩","서울특별시 강남구 선릉로162길 39(청담동)","02-511-0991","37.5738579","126.985609"
"서울특별시","종로구","쇼핑몰","궁가는여우","서울특별시 종로구 내자동 5 목천빌딩","서울특별시 종로구 사직로 119(내자동)","02-722-2318","34.8102550","126.377524"
"서울특별시","중구","쇼핑몰","롯데백화점(본점)","서울특별시 중구 소공동 1 롯데백화점 본점","서울특별시 중구 남대문로 81(소공동)","02-772-3007","36.7837819","127.583402"
"서울특별시","마포구","쇼핑몰","라이너노트","서울특별시 마포구 연남동 240-47","서울특별시 마포구 성미산로29길 4(연남동)","02-337-9966","37.1646590","127.376603"
"서울특별시","강남구","쇼핑몰","뮈샤","서울특별시 강남구 청담동 80-5","서울특별시 강남구 선릉로162길 43(청담동)","1588-9391","35.1176051","129.045060"
"서울특별시","송파구","쇼핑몰","모즈아울렛","서울특별시 송파구 문정동 42-2 모즈아울렛","서울특별시 송파구 동남로 108(문정동)","02-407-5151","35.1497647","126.918634"
"서울특별시","강서구","쇼핑몰","스토리 (Stori)","서울특별시 강서구 가양동 1487 가양테크노타운","서울특별시 강서구 허준로 217(가양동)","02-735-7101","35.3047320","129.111648"
"서울특별시","종로구","쇼핑몰","이새","서울특별시 종로구 관훈동 8-5 인사유리","서울특별시 종로구 인사동길 30-1(관훈동)","02-6713-5592","37.5557041","126.927226"
"서울특별시","용산구","쇼핑몰","조이쥬얼리","서울특별시 용산구 이태원동 60-4","서울특별시 용산구 이태원로 152-1(이태원동)","02-796-3548","37.5603597","126.976510"
"서울특별시","중구","쇼핑몰","황학동 벼룩시장 (도깨비시장 / 만물시장)","서울특별시 중구 황학동 141","서울특별시 중구 마장로5길 11-7(황학동)","","37.5642046","126.981638"
"서울특별시","종로구","쇼핑몰","돌실나이 (인사점)","서울특별시 종로구 관훈동 196-3","서울특별시 종로구 인사동길 35(관훈동)","02-737-2232","37.4599147","128.063760"
"서울특별시","강남구","쇼핑몰","세브도르 (Cep D'or)","서울특별시 강남구 역삼동 720-19 삼봉빌딩","서울특별시 강남구 언주로 431(역삼동)","02-552-3131","37.4773272","126.887676"
"서울특별시","중구","쇼핑몰","서울 중부시장","서울특별시 중구 오장동 139-11","서울특별시 중구 을지로36길 35(오장동)","02-2267-5617","37.4917620","127.117842"
"서울특별시","종로구","쇼핑몰","국제자수원 3호점","서울특별시 종로구 관훈동 189","서울특별시 종로구 인사동길 41(관훈동)","02-723-0830","35.1631461","128.980985"
"서울특별시","종로구","쇼핑몰","아리랑명품관","서울특별시 종로구 인사동 165-1","서울특별시 종로구 인사동길 17-1(인사동)","02-739-5700","34.8040894","126.392096"
"서울특별시","송파구","쇼핑몰","코오롱스포츠 (문정직영점)","서울특별시 송파구 문정동 4-11","서울특별시 송파구 동남로 128(문정동)","02-402-1594","37.5610326","126.979450"
"서울특별시","종로구","쇼핑몰","인사아트프라자","서울특별시 종로구 관훈동 21 인사아트플라자","서울특별시 종로구 인사동길 34-1(관훈동)","02-722-9969","37.5674871","127.008078"
"서울특별시","영등포구","쇼핑몰","아트박스 (영등포점)","서울특별시 영등포구 영등포동4가 442 타임스퀘어","서울특별시 영등포구 영중로 15(영등포동4가)","02-2678-4827","36.6278021","127.488265"
"서울특별시","용산구","쇼핑몰","신라아이파크면세점","","","1688-8800","34.5068505","126.801159"
"서울특별시","마포구","쇼핑몰","테테 아 테테 (tete a tete)","서울특별시 마포구 서교동 333-5","서울특별시 마포구 와우산로29길 51(서교동)","02-6409-7421","37.6910829","127.886165"
"서울특별시","중구","쇼핑몰","아크앤북 (ARC N BOOK)","서울특별시 중구 을지로1가 87 더존을지타워","서울특별시 중구 을지로 29(을지로1가)","070-8822-4728","37.5598159","126.976643"
"서울특별시","중구","쇼핑몰","남대문 문구상가","서울특별시 중구 남대문로4가 20-6","서울특별시 중구 남대문로 6-2(남대문로4가)","02-753-2805","37.5357251","127.095692"
"서울특별시","중구","쇼핑몰","롯데백화점 (에비뉴엘)","서울특별시 중구 남대문로2가 130 AVENUEL","서울특별시 중구 남대문로 73(남대문로2가)","02-771-2500","38.0270624","127.068174"
"서울특별시","금천구","쇼핑몰","W몰(W-MALL)","서울특별시 금천구 가산동 60-27 더블유몰","서울특별시 금천구 디지털로 188(가산동)","02-2081-0114","36.1945249","128.391313"
"서울특별시","송파구","쇼핑몰","지센(ZISHEN) 롯데마트송파점","서울특별시 송파구 문정동 150-2 문정프라자","서울특별시 송파구 중대로 80(문정동)","02-400-5886","37.5515008","126.913950"
"서울특별시","중구","쇼핑몰","TRAVELIGHT (트래블라이트)","서울특별시 중구 회현동1가 200-2","서울특별시 중구 남대문로 34(회현동1가)","02-318-5662","37.5619124","126.986903"
"서울특별시","중구","쇼핑몰","헬로우 에이피엠 (Hello apm)","서울특별시 중구 을지로6가 18-35 헬로우APM","서울특별시 중구 장충단로 253(을지로6가)","02-6388-1114","37.5638952","126.983641"
"서울특별시","마포구","쇼핑몰","테이크어스트릿 (Take a street)","서울특별시 마포구 서교동 490 메세나폴리스","서울특별시 마포구 양화로 45(서교동, 메세나폴리스)","02-337-2090","35.1478376","126.920021"
"서울특별시","종로구","쇼핑몰","서촌나들이","서울특별시 종로구 체부동 45-2 MJ미디어","서울특별시 종로구 자하문로 13(체부동)","02-737-4857","36.3519351","127.352817"
"서울특별시","종로구","쇼핑몰","지아衣갤러리","서울특별시 종로구 효자동 60-6 지아의갤러리","서울특별시 종로구 자하문로 76(효자동)","02-762-1241","37.5172332","126.903716"
"서울특별시","종로구","쇼핑몰","북바이북","서울특별시 종로구 당주동 5 로얄빌딩","서울특별시 종로구 새문안로5길 19(당주동)","02-725-0416","37.4909321","127.492562"
"서울특별시","중구","쇼핑몰","남대문 본동의류상가","서울특별시 중구 남창동 34-105","서울특별시 중구 남대문시장2길 3-2(남창동)","02-753-2805","37.5731706","126.985784"
"서울특별시","광진구","쇼핑몰","테크노마트 강변점","서울특별시 광진구 구의동 546-4 테크노-마트21","서울특별시 광진구 광나루로56길 85(구의동)","02-3424-0114","37.5324889","126.992280"
"서울특별시","마포구","쇼핑몰","메세나폴리스 몰","서울특별시 마포구 서교동 490 메세나폴리스","서울특별시 마포구 양화로 45(서교동, 메세나폴리스)","02-6357-0108","35.8049471","129.311254"
"서울특별시","서초구","쇼핑몰","카카오프렌즈 강남 플래그십 스토어","서울특별시 서초구 서초동 1305-7","서울특별시 서초구 강남대로 429(서초동)","02-6494-1100","35.1688178","129.129523"
"서울특별시","강남구","쇼핑몰","삼성모바일스토어 코엑스점","서울특별시 강남구 삼성동 159 코엑스","서울특별시 강남구 영동대로 513(삼성동)","02-3454-1905","37.0060053","127.276494"
"서울특별시","용산구","쇼핑몰","에덴도자기","서울특별시 용산구 이태원동 168-9","서울특별시 용산구 이태원로 159-1(이태원동)","02-793-0828","34.8401468","127.894484"
"서울특별시","중구","쇼핑몰","가나안경원 (명동2호점)","서울특별시 중구 충무로2가 12-17","서울특별시 중구 명동8가길 33(충무로2가)","02-753-6372","37.5614417","127.038394"
"서울특별시","중구","쇼핑몰","아이닥안경","서울특별시 중구 명동1가 54-8 개양빌딩","서울특별시 중구 명동3길 6(명동1가)","02-754-0110","37.5596678","126.977673"
"서울특별시","영등포구","쇼핑몰","올리브영 (타임스퀘어신세계점)","서울특별시 영등포구 영등포동4가 442 타임스퀘어","서울특별시 영등포구 영중로 15(영등포동4가)","02-2677-5290","35.1698533","129.131069"
"서울특별시","종로구","쇼핑몰","한지추억","서울특별시 종로구 관훈동 197-24","서울특별시 종로구 인사동7길 6(관훈동)","02-735-2059","37.4476109","126.452346"
"서울특별시","용산구","쇼핑몰","이태원 쇼핑거리","서울특별시 용산구 이태원동 79-39","서울특별시 용산구 녹사평대로26가길 13(이태원동)","02-797-7319","34.8407200","128.419047"
"서울특별시","중구","쇼핑몰","누죤패션몰","서울특별시 중구 신당동 200-5 누죤빌딩","서울특별시 중구 을지로45길 62(신당동)","02-6366-3114","35.0240850","126.693650"
"서울특별시","송파구","쇼핑몰","가락시장(가락농수산물 도매시장)","서울특별시 송파구 가락동 600 가락동 농수산물도매시장","서울특별시 송파구 양재대로 932(가락동)","02-3435-1000","37.5219390","127.020832"
"서울특별시","성동구","쇼핑몰","엔터식스 왕십리역점","서울특별시 성동구 행당동 168-151 왕십리민자역사","서울특별시 성동구 왕십리광장로 17(행당동)","02-2200-6000","36.1019179","127.498340"
"서울특별시","중구","쇼핑몰","대도종합상가","서울특별시 중구 남창동 33-1","서울특별시 중구 남대문시장4길 9(남창동)","02-752-2689","37.5199205","127.022510"
"서울특별시","강동구","쇼핑몰","공방시와저","서울특별시 강동구 성내동 384-11","서울특별시 강동구 성안로 101(성내동)","02-471-7444","37.5348174","126.995658"
"서울특별시","종로구","쇼핑몰","나이프갤러리","서울특별시 종로구 관훈동 192-11","서울특별시 종로구 인사동9길 7(관훈동)","02-735-4431","35.1698533","129.131069"
"서울특별시","중구","쇼핑몰","남대문 중앙상가","서울특별시 중구 남창동 49-1","서울특별시 중구 남대문시장4길 21(남창동)","02-753-2805","37.5613863","126.984941"
"서울특별시","마포구","쇼핑몰","한샘가죽공방","서울특별시 마포구 동교동 163-5","서울특별시 마포구 어울마당로 113(동교동)","02-334-8427","35.7271154","126.732962"
"서울특별시","마포구","쇼핑몰","해찬송학김","서울특별시 마포구 합정동 395-3","서울특별시 마포구 월드컵로3길 76(합정동)","02-333-8386","37.2548979","127.030423"
"서울특별시","중구","쇼핑몰","굿모닝시티","서울특별시 중구 을지로6가 18-21 굿모닝시티쇼핑몰","서울특별시 중구 장충단로 247(을지로6가)","02-2118-8700","36.9017751","128.772274"
"서울특별시","송파구","쇼핑몰","제이디엑스 (JDX)","서울특별시 송파구 문정동 42-10 대명빌딩","서울특별시 송파구 동남로 96(문정동)","02-406-1002","35.5844945","127.395889"
"서울특별시","마포구","쇼핑몰","홍대앞 희망시장","서울특별시 마포구 서교동 359 노인정","서울특별시 마포구 와우산로21길 19-3(서교동)","070-4411-4865","35.5637001","129.125695"
"서울특별시","강남구","쇼핑몰","쉭앤칙 (Chic And Chick)","서울특별시 강남구 신사동 523-24","서울특별시 강남구 강남대로162길 41-19(신사동)","02-2633-0120","35.9740754","127.205412"
"서울특별시","강남구","쇼핑몰","바리엔유 (구 바가지머리)","서울특별시 강남구 신사동 535-4","서울특별시 강남구 도산대로11길 38(신사동)","02-515-8514","34.9711607","127.590453"
"서울특별시","용산구","쇼핑몰","힐튼양복점","서울특별시 용산구 이태원동 124-5","서울특별시 용산구 이태원로 195(이태원동)","02-790-0066","36.8901364","128.735509"
"서울특별시","중구","쇼핑몰","네이처리퍼블릭 (명동월드점)","서울특별시 중구 충무로1가 24-2 명동愛타워","서울특별시 중구 명동8길 52(충무로1가)","02-753-0123","37.5727712","126.974038"
"서울특별시","서대문구","쇼핑몰","Heynature(헤이네이처) 이대점","서울특별시 서대문구 대현동 37-9","서울특별시 서대문구 이화여대7길 35(대현동)","02-2632-5179","35.6787805","127.267680"
"서울특별시","영등포구","쇼핑몰","빈폴 (타임스퀘어점)","서울특별시 영등포구 영등포동4가 442 타임스퀘어","서울특별시 영등포구 영중로 15(영등포동4가)","02-2638-2025","37.6930205","126.755787"
"서울특별시","용산구","쇼핑몰","현대 아이파크몰","서울특별시 용산구 한강로3가 40-999 용산역","서울특별시 용산구 한강대로23길 55(한강로3가)","02-2012-0101","36.1752110","127.775634"
"서울특별시","종로구","쇼핑몰","세인트제임스 삼청점(SAINT JAMES BOUTIQUE SAMCHEONG)[한국관광 품질인증/Korea Quality]","서울특별시 종로구 화동 38-1","서울특별시 종로구 삼청로 78(화동)","02-737-4628","34.9274349","128.071763"
"서울특별시","종로구","쇼핑몰","광화문 세종클럽","서울특별시 종로구 내수동 1 세종클럽","서울특별시 종로구 새문안로5가길 7(내수동)","02-722-0001","34.5068505","126.801159"
"서울특별시","종로구","쇼핑몰","청하고려인삼 [한국관광 품질인증/Korea Quality]","서울특별시 종로구 부암동 182-1 청하빌딩","서울특별시 종로구 자하문로 280(부암동)","02-395-1688","35.1397002","129.062047"
"서울특별시","종로구","쇼핑몰","동대문종합시장 한복상가","서울특별시 종로구 종로6가 262-1 동대문종합시장","서울특별시 종로구 종로 266(종로6가)","02-2262-0114","37.2982241","127.631996"
"서울특별시","용산구","쇼핑몰","롯데쇼핑 롯데아울렛 서울역점[한국관광 품질인증/Korea Quality]","서울특별시 용산구 동자동 43-205 서울역(철도역)","서울특별시 용산구 한강대로 405(동자동)","02-6965-2500","37.5707143","126.971608"
"서울특별시","종로구","쇼핑몰","아트코리아[한국관광 품질인증/Korea Quality]","서울특별시 종로구 부암동 202-4 서울미술관","서울특별시 종로구 자하문로 231(부암동)","02-394-5551","37.4898802","126.886560"
"서울특별시","서대문구","쇼핑몰","주식회사 청운에스피(CHEONGUN S.P Co.,Ltd.) [한국관광 품질인증/Korea Quality]","서울특별시 서대문구 남가좌동 330-35","서울특별시 서대문구 모래내로 235(남가좌동)","02-373-8898","36.6545680","128.450336"
"서울특별시","종로구","쇼핑몰","금강제화 (종로지점)","서울특별시 종로구 종로2가 24","서울특별시 종로구 종로 89(종로2가)","02-733-2744","37.5929145","126.964880"
"서울특별시","강남구","쇼핑몰","브릿지안경[한국관광 품질인증/Korea Quality]","","","02-543-6846","37.1738150","128.993470"
"서울특별시","중구","쇼핑몰","명동마트 [한국관광 품질인증/Korea Quality]","","","02-752-2269","35.7140254","126.994953"
"서울특별시","종로구","쇼핑몰","라바타운","서울특별시 종로구 신문로2가 1-153 주식회사 투바앤","서울특별시 종로구 경희궁1길 1(신문로2가)","070-4609-6492","36.4384995","126.849386"
"서울특별시","구로구","쇼핑몰","남구로시장","서울특별시 구로구 구로동 741-27 구로구시설관리공단","서울특별시 구로구 구로동로26길 54(구로동)","02-855-8509","35.4118105","127.383507"
"서울특별시","중구","쇼핑몰","세란안경[한국관광 품질인증/Korea Quality]","","","02-777-6789","36.7832919","127.004232"
"서울특별시","용산구","쇼핑몰","해밀톤셔츠","서울특별시 용산구 이태원동 64-12","서울특별시 용산구 이태원로 160(이태원동)","02-796-5693","37.3548848","127.923290"
"서울특별시","용산구","쇼핑몰","플랫폼 플레이스(한남점) [한국관광 품질인증/Korea Quality]","서울특별시 용산구 한남동 682-1","서울특별시 용산구 이태원로 268(한남동)","02-797-4628","33.4994335","126.540712"
"서울특별시","종로구","쇼핑몰","저집 [한국관광 품질인증/Korea Quality]","서울특별시 종로구 부암동 260-6","서울특별시 종로구 창의문로 142-1(부암동)","02-3417-0119","37.8668307","127.721176"
"서울특별시","동작구","쇼핑몰","노량진수산물도매시장","서울특별시 동작구 노량진동 334 노량진 수산물 도매시장","서울특별시 동작구 노들로 674(노량진동)","02-2254-8000","36.7426569","127.455876"
"서울특별시","중구","쇼핑몰","신세계백화점 (본점)","서울특별시 중구 충무로1가 52-5 신세계백화점건물","서울특별시 중구 소공로 63(충무로1가)","1588-1234","37.5436228","127.043585"
"서울특별시","마포구","쇼핑몰","카카오프렌즈 홍대 플래그십 스토어","서울특별시 마포구 동교동 165-5 좋은사람들 빌딩","서울특별시 마포구 양화로 162(동교동)","02-6010-0104","35.8380885","128.576050"
"서울특별시","중구","쇼핑몰","에뛰드하우스 명동충무로점 [한국관광 품질인증/Korea Quality]","서울특별시 중구 충무로1가 22-11","서울특별시 중구 명동8나길 24-1(충무로1가)","02-777-1704","37.1697719","129.036399"
"서울특별시","성동구","쇼핑몰","언더스탠드에비뉴","서울특별시 성동구 성수동1가 685-704 언더 스탠드 에비뉴","서울특별시 성동구 왕십리로 63(성수동1가)","02-725-5526","35.5548406","129.323451"
"서울특별시","종로구","쇼핑몰","질경이(삼청점) [한국관광 품질인증/Korea Quality]","서울특별시 종로구 삼청동 63-13","서울특별시 종로구 삼청로 88(삼청동)","02-744-5606","36.5007704","126.624935"
"서울특별시","양천구","쇼핑몰","목사랑시장","서울특별시 양천구 목동 726-18 목4동시장고객지원센터","서울특별시 양천구 목동중앙남로7길 8(목동)","02-2647-9191","37.5510479","129.108572"
"서울특별시","강남구","쇼핑몰","세인트제임스 서울[한국관광 품질인증/Korea Quality]","서울특별시 강남구 신사동 529-10","서울특별시 강남구 논현로175길 94(신사동)","02-543-4628","37.5589421","126.945554"
"서울특별시","강서구","쇼핑몰","롯데몰 김포공항","서울특별시 강서구 방화동 886 김포공항역","서울특별시 강서구 하늘길 지하77(방화동)","02-6116-4000","37.5594577","126.944849"
"서울특별시","종로구","쇼핑몰","동대문종합시장 악세사리상가","서울특별시 종로구 종로6가 262-1 동대문종합시장","서울특별시 종로구 종로 266(종로6가)","02-2262-0114","37.5577544","126.924365"
"서울특별시","중구","쇼핑몰","카포 풋볼 스토어 [한국관광 품질인증/Korea Quality]","서울특별시 중구 을지로7가 56 카포빌딩","서울특별시 중구 을지로 282(을지로7가)","02-2237-8777","35.9104010","128.641942"
"서울특별시","중구","쇼핑몰","남대문시장","서울특별시 중구 남창동 49-1","서울특별시 중구 남대문시장4길 21(남창동)","02-753-2805","36.2807973","126.912173"
"서울특별시","구로구","쇼핑몰","구로 중앙유통단지","서울특별시 구로구 구로동 1258 중앙유통단지","서울특별시 구로구 경인로53길 15(구로동)","02-2625-2631","37.4405931","126.783935"
"서울특별시","서대문구","쇼핑몰","스킨푸드 (신촌점)","서울특별시 서대문구 창천동 18-83","서울특별시 서대문구 연세로 6(창천동)","02-313-4191","34.7444797","127.767525"
"서울특별시","서대문구","쇼핑몰","이니스프리 (이대점)","서울특별시 서대문구 대현동 34-35","서울특별시 서대문구 이화여대길 78(대현동)","02-313-8161","37.5790883","126.986276"
"서울특별시","서대문구","쇼핑몰","정관장 (이대점)","서울특별시 서대문구 대현동 40-22","서울특별시 서대문구 신촌로 173(대현동)","02-312-3304","37.5570104","126.977683"
"서울특별시","마포구","쇼핑몰","홍대 프리마켓","서울특별시 마포구 서교동 359 노인정","서울특별시 마포구 와우산로21길 19-3(서교동)","02-325-8553","33.4288071","126.289464"
"서울특별시","서대문구","쇼핑몰","아리따움 (이대직영점)","서울특별시 서대문구 대현동 56-125","서울특별시 서대문구 이화여대길 45(대현동)","02-313-0552","34.6763679","126.902861"
"서울특별시","서대문구","쇼핑몰","POOM아트박스 (신촌점)","서울특별시 서대문구 창천동 31-80 큐비드빌딩","서울특별시 서대문구 명물길 23(창천동)","02-313-1001","36.7824439","126.455805"
"서울특별시","서대문구","쇼핑몰","모이라이 (moirai)","서울특별시 서대문구 대현동 34-22","서울특별시 서대문구 이화여대길 52-33(대현동)","02-363-7524","37.5575682","126.904250"
"서울특별시","서대문구","쇼핑몰","토니모리 (이대점)","서울특별시 서대문구 대현동 54-11","서울특별시 서대문구 이화여대길 24(대현동)","02-365-8557","37.5642510","127.004330"
"서울특별시","마포구","쇼핑몰","도로시쥬얼리","서울특별시 마포구 동교동 156-2 마젤란21 오피스텔","서울특별시 마포구 양화로 175(동교동)","02-3144-2533","37.5207299","127.019413"
"서울특별시","강남구","쇼핑몰","스타필드 코엑스몰","서울특별시 강남구 삼성동 159 코엑스","서울특별시 강남구 영동대로 513(삼성동)","02-6002-5300","37.3547068","127.942081"
"서울특별시","송파구","쇼핑몰","방이시장","서울특별시 송파구 방이동 137-8","서울특별시 송파구 백제고분로48길 41(방이동)","070-8953-3811","38.5762468","128.382527"
"서울특별시","서초구","쇼핑몰","강남고속터미널 혼수상가","서울특별시 서초구 반포동 19-4 강남고속버스터미널","서울특별시 서초구 신반포로 194(반포동)","02-537-4511","36.9739313","127.930671"
"서울특별시","종로구","쇼핑몰","북촌상회(북촌가게)","서울특별시 종로구 계동 105","서울특별시 종로구 계동길 37(계동)","02-743-1470","37.3798178","126.661250"
"서울특별시","중구","쇼핑몰","레디투웰니스 (ready to wellness)","서울특별시 중구 남창동 205-72","서울특별시 중구 퇴계로2길 9-8(남창동)","02-749-0309","37.7596632","128.061146"
"서울특별시","마포구","쇼핑몰","타이거릴리","서울특별시 마포구 망원동 422-19","서울특별시 마포구 포은로 119(망원동)","","36.9747382","127.926821"
"서울특별시","중구","쇼핑몰","필름로그 현상소","서울특별시 중구 쌍림동 22-16 동우빌딩","서울특별시 중구 퇴계로53길 6-17(쌍림동)","02-2276-1515","36.8005640","127.104726"
"서울특별시","강남구","쇼핑몰","아로마티카 제로스테이션","서울특별시 강남구 신사동 506","서울특별시 강남구 도산대로1길 62(신사동)","02-1600-3689","36.8193302","127.157846"
"서울특별시","용산구","쇼핑몰","현대카드 Vinyl & Plastic","","","02-2014-7800","33.5129807","126.521810"
"서울특별시","동대문구","쇼핑몰","경동시장","서울특별시 동대문구 제기동 1019 경동시장","서울특별시 동대문구 고산자로36길 3(제기동)","02-967-8721","34.7249807","127.089682"
"서울특별시","종로구","쇼핑몰","KCDF 갤러리숍 공예정원","서울특별시 종로구 관훈동 182-2 공예종합유통지원센터","서울특별시 종로구 인사동11길 8(관훈동)","02-733-9041","34.6654830","127.049830"
"서울특별시","마포구","쇼핑몰","망원시장","서울특별시 마포구 망원동 411-2 목화맨션","서울특별시 마포구 포은로8길 14(망원동, 목화맨션)","02-335-3591","37.5487581","126.920303"
"서울특별시","동대문구","쇼핑몰","서울 약령시장","서울특별시 동대문구 제기동 1126-5","서울특별시 동대문구 약령중앙로 10(제기동)","02-969-4793","35.2544524","127.638693"
"서울특별시","서초구","쇼핑몰","동양국악기","서울특별시 서초구 서초동 1533 서초한신리빙타워","서울특별시 서초구 효령로 237(서초동, 서초한신리빙타워)","02-523-7600","35.0654021","127.752461"
"서울특별시","광진구","쇼핑몰","중곡동 가구거리","서울특별시 광진구 능동 247-5 서울시민교회","서울특별시 광진구 천호대로 622(능동)","010-5508-0089","35.1800997","127.783756"
"서울특별시","중구","쇼핑몰","신라면세점(서울점)","서울특별시 중구 장충동2가 202","서울특별시 중구 동호로 249(장충동2가)","1688-1110","34.7572948","127.076127"
"서울특별시","강남구","쇼핑몰","현대백화점 (무역센터점)","서울특별시 강남구 삼성동 159-7 현대백화점","서울특별시 강남구 테헤란로 517(삼성동)","02-552-2233","34.9388552","128.084335"
"서울특별시","양천구","쇼핑몰","행복한백화점","서울특별시 양천구 목동 917-6 중소기업유통센터(행복한백화점)","서울특별시 양천구 목동동로 309(목동)","02-6678-9000","38.1560574","128.610118"
"서울특별시","강남구","쇼핑몰","뱅앤올룹슨 (Bang & Olufsen)","서울특별시 강남구 신사동 618-4 태승빌딩","서울특별시 강남구 언주로 865(신사동)","02-518-1380","35.1549358","129.120738"
"서울특별시","종로구","쇼핑몰","비단빔한복 (종로점)","서울특별시 종로구 종로4가 7","서울특별시 종로구 종로 195-1(종로4가)","02-744-2080","34.7312158","127.728221"
"서울특별시","마포구","쇼핑몰","폴라존(polazone)","서울특별시 마포구 서교동 402-18","서울특별시 마포구 어울마당로 39(서교동)","02-2285-5639","35.0927147","129.043933"
"서울특별시","종로구","쇼핑몰","더 비 (The B)","서울특별시 종로구 관훈동 38 쌈지길","서울특별시 종로구 인사동길 44(관훈동)","02-542-5934","36.3072142","126.901965"
"서울특별시","강남구","쇼핑몰","오르시아","서울특별시 강남구 논현동 112-21 로뎀2빌딩","서울특별시 강남구 선릉로131길 12(논현동)","02-542-6344","35.2101515","127.470080"
"서울특별시","서초구","쇼핑몰","양재 하이브랜드","서울특별시 서초구 양재동 215 하이브랜드","서울특별시 서초구 매헌로 16(양재동)","02-2155-0001","35.1453110","126.921559"
"서울특별시","종로구","쇼핑몰","핫트랙스 (광화문점)","서울특별시 종로구 종로1가 1 교보생명빌딩","서울특별시 종로구 종로 1(종로1가)","02-732-9961","33.4198324","126.274503"
"서울특별시","송파구","쇼핑몰","핫트랙스 (잠실점)","서울특별시 송파구 신천동 7-18 롯데캐슬골드","서울특별시 송파구 올림픽로 269(신천동, 롯데캐슬골드)","02-417-9961","37.5144273","127.100611"
"서울특별시","강남구","쇼핑몰","현대백화점 (압구정본점)","서울특별시 강남구 압구정동 429 현대백화점본점","서울특별시 강남구 압구정로 165(압구정동)","02-547-2233","37.5273661","127.027468"
"서울특별시","강남구","쇼핑몰","조이리치 (JOYRICH)","서울특별시 강남구 신사동 532-6","서울특별시 강남구 압구정로8길 21(신사동)","070-8242-7757","37.5224308","127.022289"
"서울특별시","중구","쇼핑몰","H&M (명동1호점)","서울특별시 중구 명동2가 83-5 Noon Square","서울특별시 중구 명동길 14(명동2가)","02-3783-4881","37.5634116","126.982887"
"서울특별시","중구","쇼핑몰","투쿨포스쿨 (명동점)","서울특별시 중구 명동2가 51-4","서울특별시 중구 명동8길 18-1(명동2가)","02-318-5617","37.5628846","126.984585"
"서울특별시","강남구","쇼핑몰","파르나스몰","서울특별시 강남구 삼성동 159-8 파르나스타워","서울특별시 강남구 테헤란로 521(삼성동)","02-559-7089","37.5091916","127.060806"
"서울특별시","중구","쇼핑몰","두산타워 (doota)","서울특별시 중구 을지로6가 18-12 두산타워빌딩","서울특별시 중구 장충단로 275(을지로6가)","02-3398-3114","37.5688849","127.008775"
"서울특별시","강남구","쇼핑몰","갤러리아백화점 명품관","서울특별시 강남구 압구정동 494 갤러리아백화점","서울특별시 강남구 압구정로 343(압구정동)","02-3449-4114","37.5284754","127.040052"
"서울특별시","종로구","쇼핑몰","한복더하기","서울특별시 종로구 체부동 51 성명빌딩","서울특별시 종로구 자하문로 7(체부동)","02-735-5430","37.5767148","126.972206"
"서울특별시","서대문구","쇼핑몰","추억을굽는가게 (신촌점)","서울특별시 서대문구 창천동 112-2","서울특별시 서대문구 신촌로11길 7(창천동)","02-333-5880","37.5570838","126.932769"
